{"type":"FeatureCollection","features":[{"type":"Feature","properties":{"NAME_1":"Andaman and Nicobar"},"geometry":{"type":"MultiPolygon","coordinates":[[[[93.79,6.85],[93.79,6.85],[93.79,6.85],[93.79,6.85]]],[[[93.72,7.21],[93.72,7.21],[93.72,7.21],[93.72,7.21]]],[[[93.85,7.24],[93.95,7.0],[93.83,6.75],[93.66,7.13],[93.85,7.24]]],[[[93.85,7.29],[93.85,7.29],[93.85,7.29],[93.85,7.29]]],[[[93.66,7.38],[93.66,7.38],[93.66,7.38],[93.66,7.38]]],[[[93.77,7.4],[93.77,7.4],[93.77,7.4],[93.77,7.4]]],[[[93.69,7.41],[93.69,7.41],[93.69,7.41],[93.69,7.41]]],[[[93.71,7.44],[93.76,7.36],[93.65,7.24],[93.63,7.37],[93.71,7.44]]],[[[93.65,7.48],[93.65,7.48],[93.65,7.48],[93.65,7.48]]],[[[93.63,7.48],[93.63,7.48],[93.63,7.48],[93.63,7.48]]],[[[93.54,7.53],[93.55,7.52],[93.55,7.52],[93.55,7.52]]],[[[93.34,7.91],[93.34,7.91],[93.34,7.91],[93.34,7.91]]],[[[93.34,7.91],[93.34,7.91],[93.34,7.91],[93.34,7.91]]],[[[93.38,8.02],[93.46,7.87],[93.32,7.93],[93.38,8.02]]],[[[93.55,8.03],[93.58,7.93],[93.51,7.98],[93.55,8.03]]],[[[93.58,8.13],[93.58,8.12],[93.58,8.12],[93.58,8.12]]],[[[93.53,8.23],[93.5,8.0],[93.45,8.17],[93.53,8.23]]],[[[93.24,8.27],[93.24,8.27],[93.24,8.27],[93.24,8.26]]],[[[93.13,8.36],[93.2,8.19],[93.09,8.27],[93.13,8.36]]],[[[93.65,8.39],[93.65,8.39],[93.65,8.39],[93.65,8.39]]],[[[93.63,8.39],[93.63,8.39],[93.63,8.39],[93.63,8.4]]],[[[93.04,8.47],[93.04,8.47],[93.04,8.47],[93.05,8.47]]],[[[93.61,8.48],[93.61,8.48],[93.61,8.48],[93.61,8.49]]],[[[93.62,8.57],[93.62,8.57],[93.62,8.57],[93.62,8.57]]],[[[93.61,8.58],[93.61,8.58],[93.61,8.58],[93.61,8.58]]],[[[92.86,8.82],[92.86,8.82],[92.86,8.82],[92.86,8.82]]],[[[92.79,9.12],[92.79,9.12],[92.79,9.12],[92.79,9.12]]],[[[92.8,9.12],[92.8,9.12],[92.8,9.12],[92.8,9.12]]],[[[92.81,9.13],[92.81,9.13],[92.81,9.13],[92.81,9.13]]],[[[92.79,9.24],[92.83,9.14],[92.73,9.12],[92.79,9.24]]],[[[92.52,10.9],[92.59,10.79],[92.57,10.58],[92.51,10.51],[92.39,10.53],[92.38,10.78],[92.52,10.9]]],[[[92.61,10.94],[92.61,10.94],[92.61,10.94],[92.61,10.94]]],[[[92.23,10.98],[92.23,10.98],[92.23,10.98],[92.23,10.98]]],[[[92.66,10.98],[92.66,10.98],[92.66,10.98],[92.66,10.98]]],[[[92.73,11.14],[92.73,11.14],[92.73,11.14],[92.73,11.14]]],[[[92.73,11.15],[92.73,11.15],[92.73,11.15],[92.73,11.15]]],[[[92.68,11.18],[92.68,11.18],[92.68,11.18],[92.68,11.18]]],[[[92.71,11.29],[92.71,11.29],[92.71,11.29],[92.71,11.29]]],[[[92.7,11.31],[92.7,11.31],[92.7,11.31],[92.7,11.31]]],[[[92.72,11.32],[92.72,11.32],[92.72,11.32],[92.72,11.31]]],[[[92.55,11.39],[92.55,11.39],[92.55,11.39],[92.55,11.39]]],[[[92.56,11.39],[92.56,11.39],[92.56,11.39],[92.56,11.39]]],[[[92.67,11.49],[92.67,11.49],[92.67,11.49],[92.67,11.49]]],[[[92.61,11.5],[92.61,11.5],[92.61,11.5],[92.61,11.5]]],[[[92.64,11.51],[92.64,11.51],[92.64,11.51],[92.64,11.51]]],[[[92.64,11.51],[92.69,11.37],[92.6,11.35],[92.64,11.51]]],[[[92.27,11.52],[92.27,11.52],[92.27,11.52],[92.27,11.52]]],[[[92.6,11.53],[92.6,11.53],[92.61,11.53],[92.61,11.53]]],[[[92.56,11.54],[92.56,11.54],[92.56,11.54],[92.56,11.54]]],[[[92.63,11.54],[92.63,11.54],[92.63,11.54],[92.63,11.54]]],[[[92.61,11.56],[92.61,11.56],[92.61,11.56],[92.61,11.56]]],[[[92.57,11.56],[92.57,11.56],[92.57,11.56],[92.57,11.56]]],[[[92.57,11.57],[92.57,11.57],[92.57,11.57],[92.57,11.57]]],[[[92.6,11.54],[92.6,11.54],[92.6,11.54],[92.6,11.54]]],[[[92.58,11.58],[92.58,11.58],[92.58,11.58],[92.58,11.58]]],[[[92.61,11.59],[92.61,11.59],[92.61,11.59],[92.61,11.59]]],[[[92.22,11.59],[92.22,11.59],[92.22,11.59],[92.22,11.59]]],[[[92.54,11.6],[92.54,11.6],[92.54,11.6],[92.54,11.6]]],[[[92.7,11.66],[92.7,11.66],[92.7,11.66],[92.7,11.66]]],[[[92.76,11.67],[92.76,11.67],[92.76,11.67],[92.76,11.67]]],[[[92.72,11.69],[92.73,11.69],[92.73,11.69],[92.73,11.69]]],[[[92.55,11.72],[92.55,11.72],[92.55,11.72],[92.55,11.72]]],[[[93.08,11.78],[93.08,11.78],[93.08,11.78],[93.08,11.78]]],[[[93.02,11.84],[93.02,11.84],[93.02,11.84],[93.02,11.84]]],[[[92.6,11.91],[92.6,11.91],[92.6,11.91],[92.6,11.91]]],[[[92.57,11.95],[92.57,11.95],[92.57,11.95],[92.57,11.95]]],[[[92.73,11.95],[92.73,11.95],[92.73,11.95],[92.73,11.95]]],[[[92.74,11.96],[92.74,11.96],[92.74,11.96],[92.74,11.96]]],[[[92.75,11.97],[92.75,11.97],[92.75,11.97],[92.75,11.97]]],[[[92.6,11.98],[92.6,11.97],[92.6,11.97],[92.6,11.97]]],[[[92.58,11.98],[92.58,11.98],[92.58,11.98],[92.58,11.98]]],[[[92.78,12.02],[92.78,12.02],[92.78,12.02],[92.78,12.02]]],[[[92.97,12.03],[93.04,11.88],[92.93,12.0],[92.97,12.03]]],[[[92.97,12.06],[92.97,12.06],[92.97,12.06],[92.97,12.06]]],[[[92.99,12.11],[92.99,12.11],[92.99,12.11],[92.99,12.11]]],[[[92.99,12.11],[92.99,12.11],[92.99,12.11],[92.99,12.11]]],[[[92.74,12.11],[92.74,12.11],[92.74,12.11],[92.74,12.11]]],[[[92.95,12.12],[92.95,12.12],[92.95,12.12],[92.95,12.11]]],[[[92.63,12.11],[92.63,12.11],[92.63,12.11],[92.63,12.11]]],[[[92.63,12.12],[92.63,12.12],[92.63,12.12],[92.63,12.12]]],[[[93.1,12.14],[93.1,12.14],[93.1,12.14],[93.1,12.14]]],[[[93.12,12.15],[93.12,12.15],[93.12,12.15],[93.12,12.15]]],[[[92.85,12.15],[92.85,12.15],[92.85,12.15],[92.84,12.15]]],[[[93.03,12.16],[93.05,12.05],[92.96,12.14],[93.03,12.16]]],[[[92.76,12.18],[92.76,12.18],[92.76,12.18],[92.76,12.18]]],[[[92.72,12.18],[92.72,12.18],[92.72,12.18],[92.72,12.18]]],[[[92.73,12.19],[92.73,12.19],[92.73,12.19],[92.73,12.19]]],[[[93.07,12.21],[93.07,12.21],[93.07,12.21],[93.07,12.21]]],[[[92.68,12.21],[92.68,12.21],[92.68,12.21],[92.68,12.22]]],[[[93.02,12.23],[93.02,12.22],[93.02,12.23],[93.02,12.22]]],[[[92.94,12.22],[92.94,12.22],[92.94,12.22],[92.94,12.22]]],[[[92.7,12.24],[92.78,12.05],[92.68,11.82],[92.79,11.9],[92.76,11.7],[92.67,11.65],[92.76,11.67],[92.71,11.48],[92.51,11.85],[92.56,11.95],[92.61,11.87],[92.7,12.24]]],[[[92.73,12.24],[92.73,12.24],[92.73,12.24],[92.73,12.24]]],[[[92.88,12.25],[92.88,12.25],[92.88,12.25],[92.88,12.25]]],[[[92.87,12.24],[92.87,12.24],[92.87,12.24],[92.87,12.24]]],[[[92.7,12.24],[92.7,12.24],[92.7,12.24],[92.7,12.25]]],[[[92.9,12.26],[92.9,12.26],[92.9,12.26],[92.9,12.25]]],[[[93.08,12.26],[93.08,12.26],[93.08,12.26],[93.08,12.26]]],[[[92.9,12.26],[92.9,12.26],[92.9,12.26],[92.9,12.26]]],[[[92.74,12.27],[92.74,12.27],[92.74,12.27],[92.74,12.27]]],[[[93.03,12.28],[93.03,12.28],[93.03,12.28],[93.03,12.28]]],[[[92.75,12.29],[92.75,12.29],[92.75,12.29],[92.75,12.29]]],[[[92.74,12.29],[92.74,12.28],[92.74,12.28],[92.74,12.28]]],[[[92.77,12.27],[92.77,12.27],[92.77,12.27],[92.77,12.27]]],[[[92.75,12.29],[92.75,12.29],[92.75,12.29],[92.75,12.29]]],[[[92.77,12.29],[92.77,12.29],[92.77,12.29],[92.77,12.29]]],[[[92.88,12.29],[92.88,12.29],[92.88,12.29],[92.88,12.29]]],[[[92.71,12.3],[92.71,12.3],[92.71,12.3],[92.71,12.3]]],[[[92.77,12.3],[92.77,12.3],[92.77,12.3],[92.77,12.3]]],[[[92.94,12.28],[92.94,12.28],[92.94,12.28],[92.94,12.28]]],[[[92.78,12.31],[92.89,12.27],[92.76,12.06],[92.78,12.31]]],[[[93.07,12.32],[93.07,12.32],[93.07,12.32],[93.07,12.32]]],[[[93.84,12.32],[93.86,12.29],[93.86,12.29],[93.86,12.3]]],[[[92.91,12.33],[92.91,12.33],[92.91,12.33],[92.91,12.33]]],[[[92.91,12.34],[92.91,12.34],[92.91,12.34],[92.91,12.34]]],[[[92.91,12.34],[92.91,12.34],[92.91,12.34],[92.91,12.34]]],[[[92.9,12.39],[92.9,12.39],[92.9,12.39],[92.9,12.39]]],[[[92.85,12.41],[92.85,12.41],[92.85,12.41],[92.85,12.41]]],[[[92.9,12.41],[92.9,12.41],[92.9,12.41],[92.9,12.41]]],[[[92.89,12.41],[92.89,12.41],[92.89,12.41],[92.89,12.41]]],[[[92.87,12.42],[92.87,12.42],[92.87,12.42],[92.87,12.42]]],[[[92.9,12.42],[92.9,12.42],[92.9,12.42],[92.9,12.42]]],[[[92.83,12.43],[92.83,12.43],[92.83,12.43],[92.83,12.43]]],[[[92.96,12.41],[92.96,12.41],[92.95,12.41],[92.95,12.41]]],[[[92.88,12.45],[92.88,12.44],[92.88,12.44],[92.88,12.44]]],[[[92.68,12.54],[92.68,12.54],[92.68,12.54],[92.68,12.54]]],[[[92.7,12.64],[92.7,12.64],[92.7,12.64],[92.7,12.64]]],[[[92.73,12.7],[92.73,12.7],[92.73,12.7],[92.73,12.7]]],[[[92.72,12.74],[92.72,12.74],[92.73,12.74],[92.73,12.74]]],[[[92.73,12.75],[92.73,12.75],[92.73,12.75],[92.73,12.75]]],[[[92.66,12.77],[92.66,12.77],[92.66,12.77],[92.66,12.77]]],[[[92.72,12.77],[92.72,12.77],[92.72,12.78],[92.72,12.78]]],[[[92.72,12.76],[92.72,12.76],[92.72,12.76],[92.72,12.76]]],[[[92.72,12.8],[92.72,12.8],[92.72,12.8],[92.72,12.8]]],[[[92.72,12.8],[92.72,12.8],[92.72,12.8],[92.72,12.8]]],[[[92.72,12.8],[92.72,12.8],[92.72,12.8],[92.72,12.8]]],[[[92.71,12.83],[92.71,12.83],[92.71,12.83],[92.71,12.83]]],[[[92.73,12.84],[92.73,12.84],[92.73,12.84],[92.73,12.84]]],[[[92.73,12.86],[92.73,12.86],[92.73,12.86],[92.73,12.86]]],[[[92.73,12.86],[92.73,12.86],[92.73,12.86],[92.73,12.86]]],[[[92.78,12.86],[92.78,12.86],[92.78,12.86],[92.78,12.86]]],[[[92.77,12.85],[92.77,12.85],[92.76,12.85],[92.76,12.86]]],[[[92.76,12.88],[92.76,12.88],[92.76,12.88],[92.76,12.88]]],[[[92.79,12.89],[92.79,12.89],[92.79,12.89],[92.79,12.89]]],[[[92.89,12.9],[92.89,12.9],[92.89,12.9],[92.89,12.9]]],[[[92.76,12.91],[92.76,12.91],[92.76,12.91],[92.76,12.91]]],[[[92.86,12.91],[92.86,12.91],[92.86,12.91],[92.86,12.91]]],[[[92.79,12.91],[92.8,12.91],[92.8,12.91],[92.8,12.91]]],[[[92.91,12.92],[92.91,12.92],[92.91,12.91],[92.91,12.91]]],[[[92.77,12.92],[92.77,12.92],[92.77,12.92],[92.77,12.92]]],[[[92.94,12.92],[92.94,12.92],[92.94,12.92],[92.94,12.92]]],[[[92.77,12.92],[92.77,12.92],[92.77,12.92],[92.77,12.92]]],[[[92.9,12.92],[92.97,12.5],[92.91,12.41],[92.79,12.47],[92.9,12.32],[92.72,12.3],[92.68,12.61],[92.79,12.67],[92.73,12.67],[92.72,12.83],[92.9,12.92]]],[[[92.77,12.93],[92.77,12.93],[92.78,12.93],[92.78,12.93]]],[[[92.88,12.93],[92.88,12.93],[92.88,12.93],[92.88,12.93]]],[[[92.77,12.93],[92.77,12.93],[92.77,12.93],[92.77,12.93]]],[[[92.89,12.94],[92.89,12.94],[92.89,12.94],[92.89,12.94]]],[[[92.9,12.94],[92.9,12.94],[92.9,12.94],[92.9,12.94]]],[[[92.67,12.95],[92.67,12.95],[92.67,12.95],[92.67,12.95]]],[[[92.67,12.95],[92.67,12.95],[92.67,12.95],[92.67,12.95]]],[[[92.7,12.99],[92.67,12.78],[92.63,12.88],[92.7,12.99]]],[[[93.01,13.0],[93.01,13.0],[93.01,13.0],[93.01,13.0]]],[[[92.99,13.0],[92.99,13.0],[92.99,13.0],[92.99,13.0]]],[[[92.91,13.0],[92.91,13.0],[92.91,13.0],[92.91,13.0]]],[[[92.95,13.02],[92.95,13.02],[92.95,13.02],[92.95,13.02]]],[[[92.93,13.02],[92.93,13.02],[92.93,13.02],[92.93,13.02]]],[[[92.92,13.04],[92.92,13.04],[92.92,13.04],[92.91,13.04]]],[[[92.93,13.05],[92.93,13.05],[92.93,13.05],[92.93,13.05]]],[[[92.92,13.06],[92.92,13.06],[92.92,13.06],[92.92,13.06]]],[[[92.73,13.1],[92.73,13.1],[92.73,13.1],[92.73,13.1]]],[[[92.72,13.1],[92.72,13.1],[92.72,13.1],[92.72,13.1]]],[[[92.79,13.17],[92.8,13.17],[92.8,13.17],[92.8,13.17]]],[[[93.06,13.22],[93.06,13.22],[93.06,13.22],[93.06,13.22]]],[[[93.02,13.28],[93.02,13.28],[93.02,13.28],[93.01,13.28]]],[[[93.07,13.3],[93.07,13.3],[93.08,13.3],[93.08,13.3]]],[[[93.02,13.33],[93.02,13.33],[93.02,13.33],[93.02,13.33]]],[[[92.97,13.33],[92.97,13.33],[92.97,13.33],[92.97,13.33]]],[[[93.02,13.34],[93.02,13.34],[93.02,13.34],[93.02,13.34]]],[[[93.04,13.34],[93.04,13.34],[93.04,13.34],[93.04,13.34]]],[[[93.08,13.36],[93.08,13.36],[93.08,13.36],[93.08,13.36]]],[[[93.08,13.37],[93.08,13.37],[93.08,13.37],[93.08,13.37]]],[[[93.06,13.38],[93.06,13.38],[93.06,13.38],[93.06,13.38]]],[[[92.87,13.41],[92.87,13.41],[92.87,13.41],[92.87,13.41]]],[[[92.81,13.42],[92.81,13.42],[92.81,13.42],[92.81,13.42]]],[[[93.09,13.42],[93.09,13.42],[93.09,13.42],[93.1,13.42]]],[[[93.07,13.43],[93.07,13.43],[93.07,13.43],[93.07,13.43]]],[[[93.1,13.44],[93.1,13.44],[93.1,13.44],[93.1,13.44]]],[[[92.84,13.44],[92.84,13.44],[92.84,13.44],[92.84,13.44]]],[[[94.27,13.46],[94.27,13.46],[94.27,13.46],[94.27,13.46]]],[[[92.87,13.51],[92.87,13.51],[92.87,13.51],[92.87,13.51]]],[[[92.92,13.52],[92.92,13.52],[92.92,13.52],[92.92,13.52]]],[[[92.91,13.54],[92.91,13.54],[92.91,13.53],[92.91,13.53]]],[[[92.88,13.54],[92.88,13.54],[92.88,13.54],[92.88,13.54]]],[[[93.01,13.56],[93.01,13.56],[93.01,13.56],[93.01,13.56]]],[[[93.06,13.57],[93.06,13.57],[93.06,13.57],[93.06,13.57]]],[[[93.03,13.57],[93.03,13.37],[93.09,13.34],[92.95,13.34],[93.07,13.27],[93.03,13.08],[92.97,13.01],[92.89,13.06],[92.94,12.97],[92.84,12.88],[92.79,13.02],[92.84,13.4],[93.03,13.57]]],[[[92.9,13.6],[92.9,13.6],[92.9,13.6],[92.9,13.6]]],[[[93.06,13.65],[93.06,13.65],[93.07,13.65],[93.07,13.65]]],[[[93.02,13.67],[93.02,13.67],[93.02,13.67],[93.02,13.67]]],[[[93.02,13.68],[93.02,13.68],[93.02,13.68],[93.02,13.68]]],[[[93.22,14.02],[93.23,14.01],[93.23,14.01],[93.23,14.01]]],[[[93.37,14.05],[93.37,14.05],[93.37,14.05],[93.37,14.05]]],[[[93.38,14.13],[93.38,14.13],[93.38,14.13],[93.38,14.13]]],[[[93.37,14.16],[93.37,14.16],[93.37,14.16],[93.37,14.16]]],[[[93.36,14.19],[93.36,14.19],[93.36,14.19],[93.36,14.19]]],[[[93.37,14.19],[93.37,14.19],[93.37,14.19],[93.37,14.19]]],[[[93.55,14.78],[93.55,14.78],[93.55,14.78],[93.55,14.79]]],[[[93.57,14.85],[93.57,14.85],[93.57,14.85],[93.57,14.85]]],[[[93.57,14.86],[93.57,14.86],[93.57,14.86],[93.57,14.86]]],[[[93.57,14.87],[93.57,14.87],[93.57,14.87],[93.57,14.87]]],[[[93.64,14.9],[93.64,14.9],[93.64,14.9],[93.64,14.9]]],[[[93.65,14.93],[93.65,14.93],[93.65,14.93],[93.65,14.93]]]]}},{"type":"Feature","properties":{"NAME_1":"Andhra Pradesh"},"geometry":{"type":"MultiPolygon","coordinates":[[[[80.27,13.46],[80.27,13.46],[80.27,13.46],[80.27,13.46]]],[[[80.23,13.49],[80.23,13.49],[80.23,13.49],[80.23,13.49]]],[[[80.23,13.49],[80.23,13.49],[80.23,13.49],[80.23,13.49]]],[[[80.27,13.52],[80.27,13.52],[80.27,13.52],[80.27,13.52]]],[[[80.19,13.52],[80.19,13.52],[80.19,13.52],[80.19,13.52]]],[[[80.18,13.54],[80.18,13.54],[80.19,13.54],[80.19,13.53]]],[[[80.05,13.59],[80.05,13.59],[80.05,13.59],[80.05,13.59]]],[[[80.15,13.62],[80.15,13.62],[80.15,13.62],[80.15,13.62]]],[[[80.1,13.64],[80.1,13.64],[80.1,13.64],[80.1,13.64]]],[[[80.11,13.65],[80.11,13.65],[80.11,13.65],[80.11,13.65]]],[[[80.1,13.68],[80.1,13.68],[80.1,13.68],[80.1,13.68]]],[[[80.06,15.2],[80.06,15.2],[80.06,15.2],[80.06,15.2]]],[[[80.21,15.5],[80.21,15.5],[80.21,15.5],[80.21,15.5]]],[[[81.03,15.77],[81.03,15.77],[81.03,15.77],[81.03,15.77]]],[[[80.78,15.84],[80.78,15.84],[80.78,15.84],[80.78,15.84]]],[[[80.79,15.84],[80.79,15.84],[80.79,15.84],[80.79,15.84]]],[[[80.79,15.86],[80.79,15.86],[80.79,15.86],[80.79,15.86]]],[[[80.77,15.86],[80.77,15.86],[80.77,15.86],[80.77,15.86]]],[[[81.54,16.36],[81.54,16.36],[81.54,16.36],[81.54,16.35]]],[[[81.54,16.36],[81.54,16.36],[81.54,16.36],[81.54,16.35]]],[[[82.32,16.58],[82.32,16.57],[82.32,16.57],[82.32,16.57]]],[[[82.26,16.68],[82.26,16.68],[82.26,16.68],[82.26,16.68]]],[[[82.3,16.71],[82.3,16.71],[82.3,16.71],[82.3,16.71]]],[[[82.31,16.72],[82.31,16.72],[82.31,16.72],[82.31,16.72]]],[[[82.31,16.73],[82.31,16.72],[82.31,16.72],[82.31,16.72]]],[[[82.33,16.72],[82.33,16.73],[82.33,16.73],[82.33,16.73]]],[[[82.33,16.72],[82.31,16.6],[82.26,16.69],[82.33,16.72]]],[[[83.17,17.57],[83.17,17.57],[83.17,17.57],[83.17,17.57]]],[[[83.31,17.68],[83.31,17.68],[83.31,17.68],[83.31,17.68]]],[[[83.31,17.68],[83.31,17.68],[83.31,17.68],[83.31,17.68]]],[[[83.27,17.71],[83.27,17.71],[83.27,17.71],[83.27,17.71]]],[[[82.3,16.71],[82.17,16.73],[82.31,16.57],[81.94,16.4],[81.72,16.31],[81.37,16.36],[80.97,15.73],[80.82,15.71],[80.81,15.84],[80.69,15.88],[80.27,15.67],[80.08,15.32],[80.05,15.08],[80.06,14.82],[80.2,14.59],[80.12,14.11],[80.32,13.44],[80.15,13.72],[80.14,13.61],[80.11,13.71],[80.05,13.59],[80.31,13.37],[80.23,13.48],[80.01,13.53],[79.93,13.34],[79.72,13.27],[79.74,13.19],[79.67,13.28],[79.58,13.25],[79.43,13.32],[79.37,13.3],[79.42,13.19],[79.31,13.1],[79.22,13.14],[79.15,13.01],[78.98,13.08],[78.92,13.02],[78.88,13.09],[78.7,13.06],[78.61,12.98],[78.55,12.69],[78.48,12.73],[78.45,12.61],[78.37,12.61],[78.19,12.68],[78.24,12.85],[78.35,12.93],[78.45,12.85],[78.42,12.97],[78.58,13.26],[78.37,13.32],[78.39,13.58],[78.18,13.56],[78.16,13.65],[78.08,13.64],[78.11,13.85],[77.94,13.82],[77.98,13.95],[77.82,13.93],[77.71,13.73],[77.65,13.78],[77.45,13.68],[77.42,13.84],[77.18,13.86],[77.18,13.92],[77.17,13.75],[76.99,13.74],[77.04,13.93],[76.89,14.16],[77.02,14.17],[77.02,14.05],[77.15,13.99],[77.31,14.02],[77.4,13.88],[77.43,13.97],[77.33,14.02],[77.4,14.1],[77.35,14.12],[77.5,14.15],[77.5,14.26],[77.39,14.32],[77.38,14.19],[77.28,14.33],[77.15,14.34],[77.11,14.21],[76.94,14.24],[76.88,14.39],[76.97,14.48],[76.87,14.47],[76.76,14.6],[76.87,14.94],[76.76,14.97],[76.77,15.06],[77.08,15.0],[77.15,15.12],[77.16,15.26],[76.97,15.49],[77.03,15.63],[77.12,15.64],[77.02,15.83],[77.07,15.9],[77.51,15.92],[77.49,16.25],[77.59,16.34],[77.24,16.47],[77.46,16.58],[77.42,16.66],[77.5,17.01],[77.38,17.22],[77.51,17.43],[77.69,17.49],[77.44,17.58],[77.65,17.97],[77.55,18.05],[77.6,18.28],[77.53,18.44],[77.6,18.55],[77.74,18.55],[77.84,18.81],[77.94,18.82],[77.76,19.03],[77.85,19.09],[77.86,19.3],[77.95,19.34],[78.17,19.24],[78.18,19.41],[78.31,19.46],[78.27,19.66],[78.37,19.78],[78.31,19.91],[78.49,19.79],[78.85,19.76],[78.86,19.66],[78.97,19.65],[78.95,19.55],[79.18,19.46],[79.24,19.61],[79.47,19.5],[79.81,19.57],[79.97,19.4],[79.94,19.17],[79.86,19.1],[79.93,19.02],[79.91,18.81],[80.11,18.68],[80.27,18.72],[80.34,18.59],[80.48,18.63],[80.63,18.52],[80.79,18.25],[80.73,18.17],[80.83,18.23],[80.86,18.13],[80.97,18.17],[81.05,17.78],[81.16,17.85],[81.61,17.82],[82.02,18.06],[82.26,17.98],[82.36,18.13],[82.31,18.2],[82.39,18.31],[82.33,18.32],[82.36,18.41],[82.47,18.54],[82.63,18.23],[82.8,18.44],[82.9,18.36],[83.05,18.38],[83.02,18.44],[83.09,18.54],[83.01,18.64],[83.13,18.77],[83.21,18.72],[83.4,18.83],[83.31,18.99],[83.46,18.95],[83.46,19.07],[83.53,19.01],[83.62,19.15],[83.75,18.92],[83.79,19.01],[83.87,18.82],[84.08,18.74],[84.31,18.78],[84.43,18.91],[84.42,19.01],[84.57,19.07],[84.59,19.01],[84.66,19.07],[84.59,19.12],[84.71,19.15],[84.75,19.05],[84.12,18.31],[83.57,18.02],[83.21,17.59],[82.37,17.12],[82.25,16.93],[82.35,16.85],[82.36,16.96],[82.3,16.71]]]]}},{"type":"Feature","properties":{"NAME_1":"Arunachal Pradesh"},"geometry":{"type":"Polygon","coordinates":[[[96.16,29.38],[96.24,29.24],[96.39,29.26],[96.11,29.08],[96.17,28.91],[96.53,29.08],[96.48,28.99],[96.62,28.78],[96.26,28.41],[96.4,28.34],[96.66,28.47],[97.0,28.32],[97.09,28.37],[97.4,28.2],[97.31,28.08],[97.42,28.02],[97.39,27.9],[97.26,27.91],[96.9,27.62],[96.91,27.46],[97.15,27.1],[96.87,27.2],[96.8,27.35],[96.62,27.37],[96.52,27.29],[96.1,27.23],[95.73,26.89],[95.53,26.83],[95.42,26.7],[95.24,26.69],[95.2,27.04],[95.46,27.14],[95.52,27.27],[95.89,27.26],[96.02,27.37],[95.85,27.43],[95.88,27.55],[95.76,27.73],[95.98,27.97],[95.61,27.96],[94.46,27.56],[94.25,27.64],[94.26,27.52],[93.81,27.15],[93.84,27.07],[93.49,26.94],[93.02,26.92],[92.66,27.04],[92.59,26.96],[92.11,26.89],[92.02,27.16],[92.04,27.27],[92.12,27.29],[92.02,27.48],[91.65,27.48],[91.56,27.58],[91.64,27.76],[91.55,27.86],[91.82,27.81],[91.92,27.72],[92.21,27.86],[92.32,27.78],[92.56,27.82],[92.74,27.99],[92.69,28.13],[93.22,28.33],[93.18,28.44],[93.34,28.64],[93.93,28.67],[94.21,29.08],[94.56,29.23],[94.63,29.35],[94.8,29.16],[95.41,29.03],[95.55,29.13],[95.54,29.21],[95.78,29.36],[96.08,29.46],[96.16,29.38]]]}},{"type":"Feature","properties":{"NAME_1":"Assam"},"geometry":{"type":"MultiPolygon","coordinates":[[[[89.87,25.54],[89.87,25.54],[89.88,25.53],[89.87,25.52]]],[[[89.87,25.54],[89.87,25.54],[89.87,25.54],[89.87,25.54]]],[[[95.95,27.94],[95.76,27.73],[95.88,27.55],[95.85,27.43],[96.02,27.37],[95.89,27.26],[95.51,27.27],[95.46,27.14],[95.02,26.93],[94.89,26.94],[94.76,26.77],[94.47,26.67],[94.32,26.46],[94.28,26.56],[94.0,26.17],[93.98,25.92],[93.8,25.81],[93.77,25.97],[93.33,25.55],[93.46,25.43],[93.47,25.31],[93.25,25.02],[93.2,24.81],[93.11,24.81],[93.04,24.41],[92.83,24.38],[92.77,24.52],[92.47,24.14],[92.42,24.25],[92.21,24.25],[92.3,24.74],[92.24,24.9],[92.49,24.87],[92.42,25.0],[92.48,25.11],[92.8,25.22],[92.78,25.33],[92.57,25.47],[92.65,25.59],[92.57,25.56],[92.39,25.75],[92.16,25.67],[92.23,25.91],[92.16,25.94],[92.3,26.08],[91.92,26.0],[91.82,26.12],[91.67,25.91],[91.58,26.03],[91.53,25.87],[91.33,25.84],[91.22,25.72],[91.2,25.86],[91.0,25.82],[91.03,25.89],[90.94,25.95],[90.62,25.9],[90.58,25.96],[90.51,25.9],[90.48,26.02],[90.12,25.96],[89.89,25.74],[90.02,25.6],[89.87,25.54],[89.81,25.82],[89.89,25.94],[89.69,26.19],[89.72,26.31],[89.86,26.38],[89.86,26.74],[90.13,26.75],[90.21,26.85],[90.41,26.9],[90.7,26.77],[91.69,26.81],[91.86,26.91],[92.06,26.85],[92.59,26.96],[92.66,27.04],[93.02,26.92],[93.66,26.97],[94.26,27.52],[94.25,27.64],[94.46,27.56],[95.61,27.96],[95.95,27.94]]]]}},{"type":"Feature","properties":{"NAME_1":"Bihar"},"geometry":{"type":"MultiPolygon","coordinates":[[[[88.11,26.54],[88.11,26.54],[88.11,26.54],[88.1,26.53]]],[[[84.12,27.51],[84.3,27.38],[84.62,27.34],[84.69,27.21],[84.64,27.05],[84.96,26.96],[85.02,26.86],[85.2,26.87],[85.21,26.76],[85.64,26.87],[85.85,26.57],[86.03,26.67],[86.33,26.62],[86.73,26.42],[87.07,26.59],[87.09,26.45],[87.34,26.35],[87.47,26.44],[87.61,26.38],[87.89,26.49],[88.03,26.36],[88.11,26.54],[88.23,26.55],[88.18,26.49],[88.28,26.34],[87.96,26.15],[87.8,25.92],[88.05,25.69],[88.07,25.48],[87.93,25.54],[87.78,25.44],[87.84,25.2],[87.58,25.35],[87.48,25.3],[87.47,25.19],[87.32,25.22],[87.29,25.09],[87.15,25.02],[87.05,24.61],[86.93,24.64],[86.91,24.54],[86.78,24.62],[86.6,24.61],[86.45,24.37],[86.28,24.46],[86.32,24.58],[86.13,24.6],[86.05,24.78],[85.95,24.73],[85.74,24.82],[85.66,24.58],[85.28,24.53],[85.09,24.38],[85.08,24.44],[84.9,24.37],[84.8,24.53],[84.66,24.39],[84.52,24.38],[84.49,24.29],[84.29,24.45],[84.29,24.57],[84.11,24.48],[83.99,24.64],[83.87,24.53],[83.5,24.53],[83.54,24.63],[83.39,24.78],[83.32,25.02],[83.35,25.2],[83.84,25.44],[84.09,25.72],[84.29,25.66],[84.33,25.74],[84.49,25.68],[84.63,25.73],[84.53,25.88],[84.05,26.1],[84.01,26.23],[84.16,26.24],[84.17,26.37],[83.9,26.45],[84.08,26.64],[84.41,26.63],[84.23,26.74],[84.24,26.86],[84.05,26.89],[83.92,27.32],[83.83,27.32],[83.91,27.38],[83.87,27.43],[84.12,27.51]]],[[[87.31,27.84],[87.31,27.84],[87.31,27.84],[87.31,27.84]]],[[[87.26,27.85],[87.25,27.84],[87.25,27.84],[87.25,27.84]]],[[[87.26,27.85],[87.27,27.85],[87.27,27.85],[87.26,27.85]]]]}},{"type":"Feature","properties":{"NAME_1":"Chandigarh"},"geometry":{"type":"Polygon","coordinates":[[[76.82,30.69],[76.69,30.76],[76.8,30.79],[76.82,30.69]]]}},{"type":"Feature","properties":{"NAME_1":"Chhattisgarh"},"geometry":{"type":"Polygon","coordinates":[[[83.33,24.1],[83.51,24.03],[83.56,23.86],[83.7,23.82],[83.77,23.6],[83.94,23.56],[84.01,23.63],[83.97,23.38],[84.07,23.33],[84.03,23.14],[84.15,22.96],[84.19,23.02],[84.37,22.98],[84.38,22.88],[84.22,22.67],[84.01,22.57],[84.0,22.37],[83.62,22.2],[83.53,22.03],[83.58,21.84],[83.47,21.78],[83.42,21.68],[83.48,21.63],[83.38,21.61],[83.33,21.5],[83.4,21.35],[83.27,21.38],[83.19,21.14],[82.64,21.15],[82.46,20.82],[82.35,20.88],[82.32,20.55],[82.43,20.43],[82.39,20.06],[82.71,19.99],[82.71,19.85],[82.59,19.77],[82.59,19.87],[82.44,19.9],[82.34,19.83],[82.23,20.0],[82.02,20.01],[81.94,20.1],[81.87,20.05],[81.85,19.91],[82.06,19.78],[82.02,19.5],[82.18,19.42],[82.16,19.13],[82.24,18.91],[82.08,18.71],[81.89,18.65],[81.95,18.56],[81.74,18.35],[81.53,18.26],[81.38,17.8],[81.16,17.85],[81.04,17.79],[80.97,18.17],[80.86,18.13],[80.83,18.23],[80.73,18.17],[80.79,18.25],[80.73,18.41],[80.49,18.63],[80.34,18.59],[80.24,18.75],[80.35,18.82],[80.27,18.99],[80.38,19.24],[80.57,19.4],[80.61,19.31],[80.75,19.29],[80.85,19.36],[80.79,19.43],[80.89,19.47],[80.66,19.61],[80.54,19.82],[80.39,19.79],[80.5,19.87],[80.41,19.93],[80.52,19.93],[80.55,20.07],[80.39,20.14],[80.38,20.24],[80.62,20.33],[80.62,20.6],[80.48,20.62],[80.58,20.68],[80.54,20.93],[80.42,21.01],[80.46,21.17],[80.67,21.3],[80.72,21.71],[80.81,21.75],[80.91,22.11],[81.0,22.07],[81.11,22.44],[81.32,22.52],[81.4,22.44],[81.62,22.54],[81.76,22.66],[81.77,22.87],[81.94,22.96],[81.94,23.08],[82.15,23.14],[82.19,23.33],[81.98,23.41],[81.92,23.53],[81.61,23.51],[81.57,23.59],[81.69,23.72],[81.61,23.91],[81.78,23.81],[81.92,23.87],[82.52,23.78],[82.8,23.96],[82.95,23.87],[83.13,23.89],[83.33,24.1]]]}},{"type":"Feature","properties":{"NAME_1":"Dadra and Nagar Haveli"},"geometry":{"type":"Polygon","coordinates":[[[72.99,20.29],[73.1,20.36],[73.18,20.31],[73.06,20.2],[73.23,20.19],[73.2,20.06],[72.99,20.11],[72.92,20.27],[72.99,20.29]]]}},{"type":"Feature","properties":{"NAME_1":"Daman and Diu"},"geometry":{"type":"MultiPolygon","coordinates":[[[[72.86,20.47],[72.86,20.47],[72.87,20.47],[72.86,20.46]]],[[[70.89,20.71],[70.89,20.71],[70.89,20.71],[70.89,20.71]]],[[[70.95,20.73],[70.96,20.73],[70.96,20.73],[70.96,20.73]]],[[[70.77,20.96],[70.9,20.9],[70.82,20.85],[70.9,20.82],[70.84,20.69],[70.67,20.76],[70.77,20.96]]]]}},{"type":"Feature","properties":{"NAME_1":"Delhi"},"geometry":{"type":"Polygon","coordinates":[[[77.22,28.84],[77.34,28.62],[77.24,28.43],[76.84,28.56],[76.93,28.64],[76.94,28.82],[77.08,28.88],[77.22,28.84]]]}},{"type":"Feature","properties":{"NAME_1":"Goa"},"geometry":{"type":"MultiPolygon","coordinates":[[[[73.78,15.36],[73.78,15.36],[73.78,15.36],[73.78,15.36]]],[[[73.8,15.38],[73.8,15.38],[73.8,15.38],[73.8,15.38]]],[[[73.86,15.41],[73.86,15.41],[73.87,15.41],[73.87,15.41]]],[[[73.88,15.78],[74.0,15.61],[74.26,15.65],[74.34,15.29],[74.26,15.26],[74.3,15.04],[74.21,14.92],[74.04,14.92],[73.91,15.08],[73.89,15.35],[73.78,15.41],[73.9,15.41],[73.79,15.46],[73.68,15.72],[73.88,15.78]]]]}},{"type":"Feature","properties":{"NAME_1":"Gujarat"},"geometry":{"type":"MultiPolygon","coordinates":[[[[70.86,20.75],[70.86,20.75],[70.86,20.75],[70.86,20.75]]],[[[72.85,20.76],[72.85,20.76],[72.85,20.76],[72.85,20.76]]],[[[71.39,20.87],[71.39,20.87],[71.39,20.87],[71.39,20.87]]],[[[71.52,20.91],[71.52,20.91],[71.52,20.91],[71.52,20.91]]],[[[71.65,20.98],[71.65,20.98],[71.65,20.98],[71.65,20.98]]],[[[71.69,21.0],[71.69,21.0],[71.69,21.0],[71.69,21.0]]],[[[71.7,21.0],[71.7,21.0],[71.7,21.0],[71.7,21.0]]],[[[71.71,21.0],[71.71,21.0],[71.71,21.0],[71.71,21.0]]],[[[72.65,21.08],[72.65,21.08],[72.65,21.08],[72.65,21.08]]],[[[72.68,21.1],[72.68,21.1],[72.68,21.1],[72.68,21.1]]],[[[72.67,21.12],[72.67,21.11],[72.67,21.11],[72.67,21.11]]],[[[72.7,21.12],[72.7,21.12],[72.7,21.12],[72.7,21.12]]],[[[72.68,21.16],[72.68,21.16],[72.68,21.16],[72.68,21.16]]],[[[72.1,21.27],[72.1,21.27],[72.1,21.27],[72.1,21.27]]],[[[72.59,21.34],[72.59,21.34],[72.59,21.34],[72.59,21.34]]],[[[72.58,21.37],[72.58,21.37],[72.58,21.37],[72.58,21.36]]],[[[72.6,21.39],[72.6,21.38],[72.6,21.38],[72.6,21.38]]],[[[72.63,21.42],[72.63,21.42],[72.63,21.42],[72.63,21.42]]],[[[72.64,21.42],[72.64,21.42],[72.64,21.42],[72.64,21.42]]],[[[72.68,21.45],[72.68,21.45],[72.68,21.45],[72.68,21.44]]],[[[69.72,21.56],[69.72,21.56],[69.72,21.56],[69.72,21.56]]],[[[69.73,21.61],[69.73,21.61],[69.73,21.61],[69.73,21.61]]],[[[72.35,21.61],[72.35,21.61],[72.35,21.61],[72.35,21.61]]],[[[72.58,21.63],[72.58,21.63],[72.58,21.63],[72.58,21.63]]],[[[72.61,21.63],[72.61,21.63],[72.61,21.63],[72.61,21.63]]],[[[72.61,21.63],[72.61,21.63],[72.61,21.63],[72.61,21.63]]],[[[72.62,21.64],[72.62,21.64],[72.62,21.64],[72.62,21.64]]],[[[72.6,21.64],[72.6,21.64],[72.6,21.64],[72.6,21.64]]],[[[72.62,21.64],[72.62,21.64],[72.62,21.64],[72.62,21.64]]],[[[72.6,21.64],[72.6,21.64],[72.6,21.64],[72.6,21.64]]],[[[72.72,21.67],[72.72,21.67],[72.72,21.67],[72.72,21.67]]],[[[72.27,21.75],[72.27,21.75],[72.27,21.75],[72.27,21.75]]],[[[72.35,21.94],[72.35,21.94],[72.36,21.94],[72.36,21.94]]],[[[72.21,22.01],[72.21,22.0],[72.21,22.0],[72.21,22.0]]],[[[72.47,22.21],[72.47,22.21],[72.47,22.21],[72.47,22.21]]],[[[72.38,22.22],[72.38,22.22],[72.39,22.22],[72.39,22.22]]],[[[72.37,22.24],[72.37,22.23],[72.37,22.23],[72.37,22.23]]],[[[69.31,22.31],[69.31,22.31],[69.31,22.31],[69.31,22.31]]],[[[69.45,22.36],[69.45,22.36],[69.45,22.36],[69.45,22.36]]],[[[69.18,22.37],[69.18,22.37],[69.18,22.37],[69.18,22.37]]],[[[69.2,22.37],[69.2,22.37],[69.2,22.37],[69.2,22.37]]],[[[69.21,22.38],[69.21,22.38],[69.21,22.38],[69.21,22.38]]],[[[69.2,22.39],[69.2,22.39],[69.2,22.39],[69.2,22.38]]],[[[69.34,22.39],[69.34,22.39],[69.34,22.39],[69.34,22.39]]],[[[69.48,22.4],[69.48,22.4],[69.48,22.4],[69.48,22.4]]],[[[69.28,22.42],[69.28,22.42],[69.28,22.42],[69.28,22.42]]],[[[69.28,22.42],[69.28,22.42],[69.28,22.42],[69.28,22.42]]],[[[69.14,22.46],[69.14,22.46],[69.14,22.46],[69.14,22.46]]],[[[69.63,22.46],[69.63,22.46],[69.63,22.46],[69.63,22.46]]],[[[69.3,22.47],[69.3,22.47],[69.3,22.47],[69.3,22.47]]],[[[69.14,22.48],[69.14,22.48],[69.14,22.48],[69.14,22.48]]],[[[69.09,22.49],[69.09,22.49],[69.09,22.49],[69.09,22.49]]],[[[69.32,22.53],[69.32,22.53],[69.32,22.53],[69.32,22.53]]],[[[69.94,22.53],[69.94,22.53],[69.95,22.53],[69.95,22.53]]],[[[69.41,22.53],[69.41,22.53],[69.41,22.53],[69.41,22.53]]],[[[69.96,22.54],[69.96,22.54],[69.96,22.54],[69.96,22.54]]],[[[69.96,22.54],[69.96,22.54],[69.96,22.54],[69.96,22.54]]],[[[69.95,22.55],[69.95,22.55],[69.95,22.55],[69.95,22.55]]],[[[69.92,22.55],[69.92,22.55],[69.92,22.55],[69.92,22.55]]],[[[70.02,22.55],[70.02,22.55],[70.02,22.55],[70.02,22.55]]],[[[70.01,22.55],[70.01,22.55],[70.01,22.55],[70.01,22.55]]],[[[70.02,22.56],[70.02,22.56],[70.02,22.56],[70.02,22.56]]],[[[70.04,22.57],[70.04,22.57],[70.04,22.57],[70.04,22.57]]],[[[70.04,22.57],[70.04,22.57],[70.04,22.57],[70.04,22.57]]],[[[70.18,22.58],[70.18,22.58],[70.18,22.58],[70.18,22.58]]],[[[70.01,22.59],[70.01,22.59],[70.01,22.59],[70.01,22.59]]],[[[70.19,22.6],[70.19,22.6],[70.19,22.6],[70.19,22.6]]],[[[69.95,22.61],[69.95,22.61],[69.95,22.61],[69.95,22.61]]],[[[70.22,22.65],[70.22,22.65],[70.22,22.65],[70.22,22.65]]],[[[70.24,22.68],[70.24,22.68],[70.24,22.68],[70.24,22.68]]],[[[70.24,22.68],[70.24,22.68],[70.24,22.68],[70.24,22.68]]],[[[70.25,22.69],[70.25,22.69],[70.25,22.69],[70.25,22.69]]],[[[70.24,22.72],[70.24,22.72],[70.24,22.72],[70.24,22.72]]],[[[69.64,22.76],[69.64,22.76],[69.64,22.76],[69.64,22.76]]],[[[69.64,22.78],[69.64,22.78],[69.64,22.78],[69.64,22.78]]],[[[70.46,23.0],[70.46,22.99],[70.45,22.99],[70.45,22.99]]],[[[70.44,23.05],[70.44,23.05],[70.44,23.05],[70.44,23.05]]],[[[70.45,23.05],[70.45,23.05],[70.45,23.05],[70.45,23.05]]],[[[70.45,23.05],[70.45,23.05],[70.45,23.05],[70.45,23.05]]],[[[70.46,23.06],[70.46,23.06],[70.46,23.06],[70.46,23.06]]],[[[70.45,23.06],[70.45,23.06],[70.45,23.06],[70.45,23.06]]],[[[70.47,23.06],[70.47,23.06],[70.47,23.06],[70.47,23.06]]],[[[70.48,23.07],[70.48,23.06],[70.48,23.06],[70.48,23.06]]],[[[68.61,23.23],[68.61,23.23],[68.61,23.23],[68.61,23.23]]],[[[68.59,23.26],[68.59,23.26],[68.59,23.26],[68.59,23.26]]],[[[68.66,23.27],[68.66,23.27],[68.66,23.27],[68.66,23.27]]],[[[68.63,23.29],[68.63,23.29],[68.63,23.29],[68.63,23.29]]],[[[68.71,23.31],[68.71,23.31],[68.71,23.31],[68.71,23.31]]],[[[68.56,23.31],[68.56,23.31],[68.56,23.31],[68.56,23.31]]],[[[68.64,23.31],[68.64,23.31],[68.64,23.31],[68.64,23.31]]],[[[68.63,23.32],[68.63,23.32],[68.63,23.32],[68.63,23.32]]],[[[68.64,23.32],[68.64,23.32],[68.64,23.32],[68.64,23.32]]],[[[68.59,23.32],[68.59,23.32],[68.59,23.32],[68.59,23.32]]],[[[68.63,23.32],[68.63,23.32],[68.63,23.32],[68.63,23.32]]],[[[68.63,23.32],[68.63,23.32],[68.63,23.32],[68.63,23.32]]],[[[68.63,23.33],[68.63,23.33],[68.63,23.33],[68.63,23.33]]],[[[68.54,23.34],[68.54,23.34],[68.54,23.34],[68.54,23.34]]],[[[68.55,23.34],[68.55,23.34],[68.55,23.34],[68.55,23.34]]],[[[68.56,23.34],[68.56,23.34],[68.56,23.34],[68.56,23.34]]],[[[68.51,23.34],[68.51,23.34],[68.51,23.34],[68.51,23.34]]],[[[68.53,23.34],[68.53,23.34],[68.53,23.34],[68.53,23.34]]],[[[68.56,23.34],[68.56,23.34],[68.56,23.34],[68.56,23.34]]],[[[68.63,23.35],[68.63,23.35],[68.63,23.35],[68.63,23.35]]],[[[68.47,23.36],[68.47,23.36],[68.47,23.36],[68.47,23.36]]],[[[68.57,23.36],[68.57,23.36],[68.57,23.36],[68.57,23.36]]],[[[68.6,23.36],[68.6,23.36],[68.6,23.36],[68.6,23.36]]],[[[68.59,23.37],[68.59,23.37],[68.59,23.37],[68.59,23.37]]],[[[68.54,23.38],[68.54,23.38],[68.54,23.38],[68.54,23.38]]],[[[68.5,23.38],[68.5,23.38],[68.5,23.38],[68.5,23.38]]],[[[68.5,23.38],[68.5,23.38],[68.5,23.38],[68.5,23.38]]],[[[68.54,23.39],[68.54,23.38],[68.54,23.38],[68.54,23.38]]],[[[68.58,23.39],[68.58,23.39],[68.58,23.39],[68.58,23.38]]],[[[68.54,23.39],[68.54,23.39],[68.53,23.39],[68.53,23.39]]],[[[68.55,23.4],[68.55,23.4],[68.56,23.4],[68.56,23.4]]],[[[68.54,23.4],[68.54,23.4],[68.54,23.4],[68.54,23.4]]],[[[68.46,23.41],[68.46,23.4],[68.46,23.4],[68.46,23.4]]],[[[68.52,23.4],[68.52,23.4],[68.52,23.4],[68.52,23.4]]],[[[68.47,23.41],[68.47,23.41],[68.47,23.41],[68.47,23.4]]],[[[68.43,23.41],[68.43,23.41],[68.43,23.41],[68.43,23.41]]],[[[68.46,23.41],[68.46,23.41],[68.46,23.41],[68.46,23.41]]],[[[68.41,23.41],[68.41,23.41],[68.41,23.41],[68.41,23.41]]],[[[68.56,23.41],[68.56,23.41],[68.56,23.41],[68.56,23.41]]],[[[68.41,23.41],[68.41,23.41],[68.41,23.41],[68.41,23.41]]],[[[68.46,23.41],[68.46,23.41],[68.46,23.41],[68.46,23.41]]],[[[68.55,23.41],[68.55,23.41],[68.55,23.41],[68.55,23.41]]],[[[68.4,23.42],[68.4,23.42],[68.4,23.42],[68.4,23.42]]],[[[68.4,23.42],[68.4,23.42],[68.4,23.42],[68.4,23.42]]],[[[68.4,23.43],[68.4,23.43],[68.4,23.43],[68.4,23.43]]],[[[68.5,23.43],[68.5,23.43],[68.5,23.43],[68.5,23.43]]],[[[68.52,23.43],[68.52,23.43],[68.52,23.43],[68.52,23.43]]],[[[68.5,23.44],[68.5,23.44],[68.5,23.44],[68.5,23.44]]],[[[68.5,23.44],[68.5,23.44],[68.5,23.44],[68.5,23.44]]],[[[68.5,23.45],[68.5,23.45],[68.5,23.45],[68.5,23.45]]],[[[68.51,23.46],[68.51,23.46],[68.51,23.46],[68.51,23.46]]],[[[68.41,23.46],[68.41,23.46],[68.41,23.46],[68.41,23.46]]],[[[68.5,23.48],[68.5,23.48],[68.5,23.48],[68.5,23.47]]],[[[68.47,23.48],[68.48,23.4],[68.47,23.46],[68.42,23.42],[68.47,23.48]]],[[[68.5,23.49],[68.5,23.49],[68.5,23.49],[68.5,23.49]]],[[[68.51,23.49],[68.51,23.49],[68.51,23.49],[68.51,23.49]]],[[[68.51,23.49],[68.51,23.49],[68.51,23.49],[68.51,23.49]]],[[[68.49,23.5],[68.49,23.5],[68.49,23.5],[68.49,23.49]]],[[[68.47,23.5],[68.47,23.5],[68.47,23.5],[68.47,23.5]]],[[[68.44,23.5],[68.44,23.5],[68.44,23.5],[68.44,23.5]]],[[[68.48,23.5],[68.48,23.5],[68.48,23.5],[68.48,23.5]]],[[[68.47,23.52],[68.47,23.52],[68.47,23.52],[68.47,23.52]]],[[[68.48,23.53],[68.48,23.53],[68.48,23.53],[68.48,23.53]]],[[[68.47,23.54],[68.47,23.54],[68.47,23.54],[68.47,23.54]]],[[[68.48,23.55],[68.48,23.55],[68.48,23.55],[68.48,23.55]]],[[[68.48,23.56],[68.48,23.55],[68.48,23.55],[68.48,23.55]]],[[[68.22,23.59],[68.22,23.59],[68.23,23.59],[68.23,23.59]]],[[[68.26,23.59],[68.26,23.59],[68.26,23.59],[68.26,23.59]]],[[[68.22,23.59],[68.22,23.59],[68.22,23.59],[68.22,23.59]]],[[[68.48,23.6],[68.48,23.6],[68.48,23.6],[68.48,23.6]]],[[[68.46,23.6],[68.46,23.6],[68.46,23.6],[68.46,23.6]]],[[[68.48,23.61],[68.48,23.61],[68.48,23.61],[68.48,23.61]]],[[[68.46,23.62],[68.46,23.62],[68.46,23.62],[68.46,23.62]]],[[[68.48,23.63],[68.48,23.63],[68.49,23.63],[68.49,23.63]]],[[[68.48,23.72],[68.48,23.72],[68.48,23.72],[68.48,23.72]]],[[[68.45,23.73],[68.45,23.73],[68.45,23.73],[68.45,23.73]]],[[[68.47,23.74],[68.47,23.74],[68.47,23.74],[68.47,23.74]]],[[[68.49,23.75],[68.49,23.75],[68.49,23.75],[68.49,23.74]]],[[[68.22,23.78],[68.22,23.78],[68.22,23.78],[68.22,23.78]]],[[[68.35,23.8],[68.35,23.8],[68.35,23.8],[68.35,23.79]]],[[[68.36,23.81],[68.43,23.79],[68.39,23.65],[68.2,23.6],[68.31,23.65],[68.23,23.64],[68.36,23.81]]],[[[68.61,23.81],[68.61,23.81],[68.61,23.81],[68.61,23.81]]],[[[68.6,23.81],[68.6,23.81],[68.6,23.81],[68.6,23.81]]],[[[68.31,23.82],[68.31,23.82],[68.31,23.82],[68.31,23.82]]],[[[68.5,23.83],[68.52,23.75],[68.44,23.74],[68.5,23.83]]],[[[68.71,23.85],[68.71,23.85],[68.71,23.85],[68.71,23.85]]],[[[68.7,23.85],[68.7,23.85],[68.7,23.85],[68.7,23.85]]],[[[68.53,23.87],[68.53,23.87],[68.53,23.87],[68.53,23.87]]],[[[68.4,23.88],[68.43,23.81],[68.33,23.79],[68.4,23.88]]],[[[68.25,23.88],[68.25,23.88],[68.25,23.88],[68.25,23.88]]],[[[68.45,23.94],[68.45,23.94],[68.45,23.94],[68.45,23.94]]],[[[68.54,23.95],[68.59,23.92],[68.52,23.86],[68.54,23.95]]],[[[68.53,23.95],[68.53,23.95],[68.53,23.95],[68.53,23.95]]],[[[68.48,23.99],[68.52,23.92],[68.44,23.85],[68.48,23.99]]],[[[68.43,24.0],[68.24,23.68],[68.21,23.83],[68.43,24.0]]],[[[72.1,24.64],[72.35,24.62],[72.25,24.58],[72.44,24.5],[72.46,24.41],[72.54,24.51],[72.7,24.46],[72.73,24.36],[72.92,24.33],[73.01,24.48],[73.1,24.49],[73.08,24.39],[73.23,24.36],[73.08,24.18],[73.25,24.01],[73.37,24.13],[73.42,23.93],[73.36,23.79],[73.51,23.7],[73.51,23.62],[73.66,23.62],[73.63,23.45],[73.83,23.45],[73.89,23.34],[73.96,23.38],[74.11,23.29],[74.13,23.18],[74.25,23.19],[74.36,22.93],[74.48,22.86],[74.38,22.64],[74.27,22.64],[74.15,22.52],[74.04,22.54],[74.12,22.42],[74.19,22.48],[74.29,22.39],[74.19,22.32],[74.07,22.36],[74.18,22.09],[74.1,22.02],[74.15,21.96],[73.81,21.82],[73.9,21.67],[73.79,21.63],[73.86,21.5],[74.31,21.57],[74.33,21.5],[74.07,21.48],[73.95,21.4],[73.95,21.3],[73.83,21.27],[73.82,21.17],[73.59,21.17],[73.91,20.98],[73.95,20.74],[73.67,20.56],[73.45,20.71],[73.4,20.64],[73.5,20.54],[73.39,20.39],[73.43,20.21],[73.31,20.21],[73.26,20.12],[73.18,20.21],[73.07,20.16],[73.18,20.29],[73.11,20.36],[72.92,20.28],[72.97,20.21],[72.74,20.14],[72.78,20.33],[72.88,20.38],[72.89,20.75],[72.72,21.14],[72.63,21.08],[72.65,21.23],[72.59,21.28],[72.74,21.55],[72.63,21.49],[72.6,21.55],[72.84,21.67],[72.54,21.66],[72.57,21.82],[72.5,21.96],[72.58,22.2],[72.76,22.17],[72.92,22.28],[72.54,22.28],[72.49,22.2],[72.36,22.38],[72.42,22.23],[72.36,22.27],[72.34,22.12],[72.29,22.2],[72.28,21.93],[72.24,22.05],[72.3,22.11],[72.17,22.04],[72.22,21.96],[72.15,21.98],[72.25,21.9],[72.27,21.74],[72.18,21.82],[72.31,21.63],[72.08,21.3],[72.11,21.2],[71.05,20.73],[70.87,20.71],[70.9,20.82],[70.82,20.85],[70.89,20.95],[70.74,20.99],[70.67,20.75],[70.1,21.1],[69.71,21.53],[69.74,21.65],[69.7,21.59],[69.63,21.64],[69.71,21.54],[69.59,21.62],[68.94,22.31],[69.07,22.48],[69.07,22.4],[69.19,22.42],[69.16,22.31],[69.23,22.26],[69.49,22.34],[69.5,22.44],[69.58,22.32],[69.73,22.47],[69.8,22.4],[69.83,22.5],[69.87,22.45],[69.98,22.54],[70.16,22.55],[70.49,23.08],[70.35,22.93],[70.12,22.96],[70.15,23.03],[70.13,22.92],[69.8,22.85],[69.71,22.73],[69.63,22.8],[69.47,22.77],[69.19,22.84],[68.66,23.15],[68.59,23.23],[68.76,23.33],[68.65,23.3],[68.49,23.5],[68.5,23.65],[68.76,23.87],[68.6,23.85],[68.53,23.76],[68.51,23.82],[68.66,23.92],[68.55,23.96],[68.75,23.96],[68.77,24.29],[68.89,24.2],[68.95,24.28],[69.0,24.23],[69.6,24.28],[69.72,24.18],[70.0,24.17],[70.12,24.29],[70.57,24.42],[70.57,24.25],[70.81,24.22],[71.13,24.4],[71.01,24.44],[71.0,24.54],[71.11,24.68],[71.3,24.61],[71.54,24.68],[71.8,24.67],[71.86,24.6],[71.88,24.68],[71.94,24.63],[72.05,24.71],[72.1,24.64]]]]}},{"type":"Feature","properties":{"NAME_1":"Haryana"},"geometry":{"type":"Polygon","coordinates":[[[76.84,30.88],[77.15,30.69],[77.11,30.57],[77.2,30.48],[77.45,30.47],[77.43,30.4],[77.51,30.45],[77.59,30.37],[77.41,30.11],[77.27,30.05],[77.12,29.77],[77.12,29.11],[77.22,28.9],[76.94,28.82],[76.93,28.64],[76.83,28.58],[76.88,28.51],[77.07,28.52],[77.17,28.41],[77.33,28.51],[77.47,28.41],[77.54,27.95],[77.23,27.79],[77.04,27.82],[77.08,27.74],[76.99,27.74],[76.97,27.66],[76.88,27.7],[76.96,28.14],[76.86,28.22],[76.54,27.97],[76.54,28.04],[76.45,28.05],[76.47,28.15],[76.29,28.18],[76.34,28.03],[76.18,28.06],[76.15,28.0],[76.22,27.84],[75.96,27.86],[75.92,27.93],[76.04,28.07],[75.94,28.09],[76.09,28.16],[75.92,28.37],[75.77,28.41],[75.56,28.61],[75.47,28.93],[75.51,29.01],[75.36,29.14],[75.4,29.26],[75.08,29.23],[74.84,29.4],[74.6,29.33],[74.53,29.45],[74.61,29.53],[74.61,29.75],[74.47,29.79],[74.55,29.87],[74.52,29.95],[74.65,29.9],[74.8,29.99],[74.99,29.86],[75.08,29.92],[75.09,29.81],[75.18,29.84],[75.23,29.75],[75.16,29.66],[75.22,29.55],[75.44,29.81],[75.57,29.74],[75.77,29.83],[76.04,29.75],[76.24,29.87],[76.17,29.93],[76.25,30.1],[76.2,30.16],[76.32,30.11],[76.41,30.2],[76.45,30.1],[76.6,30.08],[76.64,30.21],[76.55,30.26],[76.72,30.33],[76.76,30.44],[76.93,30.39],[76.76,30.89],[76.84,30.88]]]}},{"type":"Feature","properties":{"NAME_1":"Himachal Pradesh"},"geometry":{"type":"Polygon","coordinates":[[[76.8,33.24],[76.92,33.03],[77.14,32.98],[77.33,32.82],[77.71,32.97],[77.98,32.59],[78.37,32.76],[78.39,32.62],[78.28,32.51],[78.44,32.51],[78.52,32.42],[78.44,32.25],[78.59,32.22],[78.6,32.12],[78.77,32.0],[78.69,31.79],[78.83,31.62],[78.71,31.52],[79.0,31.12],[78.87,31.11],[78.8,31.21],[78.47,31.2],[78.36,31.29],[77.89,31.15],[77.69,30.77],[77.81,30.53],[77.57,30.38],[77.12,30.55],[77.15,30.69],[76.9,30.9],[76.61,31.0],[76.63,31.22],[76.43,31.28],[76.36,31.44],[76.3,31.32],[76.17,31.31],[75.89,31.95],[75.58,32.08],[75.66,32.16],[75.62,32.23],[75.93,32.42],[75.85,32.51],[75.91,32.76],[75.79,32.89],[75.99,32.9],[76.39,33.19],[76.63,33.16],[76.8,33.24]]]}},{"type":"Feature","properties":{"NAME_1":"Jammu and Kashmir"},"geometry":{"type":"Polygon","coordinates":[[[77.9,35.43],[78.11,35.48],[77.99,35.35],[78.25,34.7],[78.57,34.61],[78.98,34.33],[78.96,34.22],[78.71,34.07],[78.78,33.77],[78.71,33.65],[79.07,33.23],[79.41,33.18],[79.35,32.98],[79.54,32.75],[79.55,32.61],[79.31,32.49],[79.2,32.51],[79.1,32.37],[78.98,32.34],[78.78,32.48],[78.75,32.7],[78.31,32.48],[78.37,32.76],[77.98,32.59],[77.71,32.97],[77.33,32.82],[77.14,32.98],[76.92,33.03],[76.78,33.26],[76.73,33.18],[76.39,33.19],[75.95,32.89],[75.81,32.93],[75.92,32.64],[75.5,32.28],[75.07,32.48],[74.7,32.48],[74.64,32.61],[74.7,32.84],[74.53,32.74],[74.32,32.92],[74.35,33.02],[74.01,33.2],[74.19,33.46],[73.96,33.72],[74.22,33.87],[74.26,33.97],[74.21,34.04],[73.88,34.05],[73.98,34.26],[73.9,34.36],[73.76,34.37],[73.95,34.57],[73.96,34.7],[74.14,34.69],[74.38,34.8],[75.75,34.52],[76.47,34.79],[76.68,34.76],[76.75,34.93],[77.0,34.94],[77.02,35.04],[77.16,35.05],[77.82,35.5],[77.9,35.43]]]}},{"type":"Feature","properties":{"NAME_1":"Jharkhand"},"geometry":{"type":"Polygon","coordinates":[[[87.6,25.31],[87.78,25.25],[87.78,25.09],[87.97,24.9],[87.82,24.77],[87.9,24.72],[87.91,24.59],[87.77,24.58],[87.81,24.41],[87.64,24.24],[87.69,24.15],[87.49,24.12],[87.46,23.98],[87.24,24.04],[87.29,23.9],[87.24,23.83],[86.79,23.83],[86.79,23.69],[86.44,23.63],[86.3,23.42],[86.05,23.58],[86.05,23.49],[85.86,23.45],[85.83,23.2],[85.91,23.13],[86.04,23.14],[86.21,22.99],[86.54,22.99],[86.43,22.92],[86.42,22.78],[86.62,22.67],[86.65,22.58],[86.76,22.57],[86.75,22.45],[86.89,22.25],[86.75,22.21],[86.5,22.34],[86.43,22.3],[86.04,22.56],[85.95,22.46],[86.03,22.19],[85.91,21.97],[85.76,21.99],[85.8,22.11],[85.68,22.05],[85.39,22.16],[85.23,22.0],[85.1,22.1],[84.98,22.08],[85.11,22.29],[85.06,22.48],[84.29,22.34],[84.0,22.52],[84.08,22.64],[84.22,22.67],[84.39,22.94],[84.19,23.02],[84.15,22.96],[84.03,23.14],[84.07,23.33],[83.97,23.38],[84.01,23.63],[83.94,23.56],[83.77,23.6],[83.7,23.82],[83.56,23.86],[83.51,24.03],[83.32,24.1],[83.45,24.36],[83.4,24.5],[83.87,24.53],[83.99,24.64],[84.11,24.48],[84.3,24.56],[84.29,24.45],[84.49,24.29],[84.52,24.38],[84.66,24.39],[84.8,24.53],[84.9,24.37],[85.08,24.44],[85.09,24.38],[85.28,24.53],[85.66,24.58],[85.74,24.82],[85.95,24.73],[86.05,24.78],[86.13,24.6],[86.32,24.58],[86.28,24.46],[86.45,24.37],[86.6,24.61],[86.78,24.62],[86.91,24.54],[86.93,24.64],[87.05,24.61],[87.18,25.06],[87.29,25.09],[87.32,25.22],[87.47,25.19],[87.49,25.31],[87.6,25.31]]]}},{"type":"Feature","properties":{"NAME_1":"Karnataka"},"geometry":{"type":"MultiPolygon","coordinates":[[[[74.67,13.2],[74.67,13.2],[74.67,13.2],[74.67,13.2]]],[[[74.73,13.28],[74.73,13.28],[74.73,13.28],[74.73,13.28]]],[[[74.7,13.28],[74.7,13.28],[74.7,13.28],[74.7,13.28]]],[[[74.72,13.29],[74.72,13.29],[74.72,13.29],[74.72,13.29]]],[[[74.69,13.33],[74.69,13.33],[74.69,13.33],[74.69,13.33]]],[[[74.69,13.34],[74.69,13.34],[74.69,13.34],[74.69,13.34]]],[[[74.68,13.35],[74.68,13.35],[74.68,13.35],[74.68,13.35]]],[[[74.67,13.38],[74.67,13.38],[74.67,13.38],[74.67,13.38]]],[[[74.48,14.01],[74.48,14.01],[74.48,14.01],[74.48,14.01]]],[[[74.33,14.02],[74.33,14.02],[74.33,14.02],[74.33,14.02]]],[[[74.4,14.32],[74.4,14.32],[74.4,14.32],[74.4,14.31]]],[[[74.37,14.55],[74.37,14.55],[74.37,14.55],[74.37,14.55]]],[[[74.25,14.71],[74.25,14.71],[74.25,14.71],[74.25,14.71]]],[[[74.24,14.71],[74.24,14.71],[74.24,14.71],[74.24,14.71]]],[[[74.16,14.74],[74.16,14.74],[74.16,14.74],[74.16,14.74]]],[[[74.11,14.76],[74.11,14.76],[74.11,14.76],[74.11,14.76]]],[[[74.09,14.8],[74.09,14.8],[74.09,14.8],[74.09,14.8]]],[[[74.06,14.82],[74.06,14.82],[74.06,14.82],[74.06,14.82]]],[[[74.06,14.82],[74.06,14.82],[74.06,14.82],[74.06,14.82]]],[[[74.06,14.82],[74.06,14.82],[74.06,14.82],[74.06,14.82]]],[[[74.09,14.84],[74.09,14.84],[74.09,14.84],[74.09,14.84]]],[[[74.1,14.85],[74.1,14.85],[74.1,14.85],[74.1,14.85]]],[[[74.1,14.88],[74.1,14.88],[74.1,14.88],[74.1,14.88]]],[[[77.34,18.44],[77.41,18.39],[77.36,18.31],[77.6,18.28],[77.55,18.05],[77.65,17.97],[77.44,17.58],[77.69,17.5],[77.51,17.43],[77.38,17.22],[77.5,17.01],[77.42,16.66],[77.46,16.58],[77.24,16.47],[77.59,16.29],[77.49,16.25],[77.51,15.92],[77.18,15.95],[77.02,15.83],[77.12,15.66],[77.03,15.63],[76.97,15.49],[77.16,15.26],[77.16,15.16],[77.08,15.0],[76.77,15.07],[76.76,14.97],[76.87,14.94],[76.76,14.6],[76.87,14.47],[76.97,14.48],[76.88,14.39],[76.94,14.24],[77.11,14.21],[77.15,14.34],[77.28,14.33],[77.38,14.19],[77.39,14.32],[77.5,14.26],[77.5,14.15],[77.35,14.12],[77.4,14.1],[77.33,14.02],[77.43,13.97],[77.4,13.88],[77.31,14.02],[77.15,13.99],[77.02,14.05],[77.02,14.17],[76.89,14.16],[77.04,13.93],[76.99,13.74],[77.17,13.75],[77.18,13.92],[77.18,13.86],[77.42,13.84],[77.48,13.68],[77.65,13.78],[77.71,13.73],[77.82,13.93],[77.98,13.95],[77.94,13.82],[78.04,13.89],[78.11,13.84],[78.08,13.64],[78.16,13.65],[78.18,13.56],[78.39,13.58],[78.37,13.32],[78.58,13.26],[78.42,12.97],[78.45,12.85],[78.35,12.93],[78.22,12.75],[77.83,12.86],[77.73,12.66],[77.59,12.66],[77.62,12.41],[77.47,12.2],[77.73,12.17],[77.77,12.11],[77.66,11.94],[77.48,11.93],[77.42,11.75],[77.24,11.8],[77.11,11.71],[77.0,11.8],[76.9,11.78],[76.84,11.57],[76.56,11.61],[76.5,11.7],[76.41,11.66],[76.41,11.75],[76.11,11.85],[76.11,11.97],[75.87,11.95],[75.8,12.07],[75.66,12.09],[75.42,12.29],[75.37,12.41],[75.41,12.5],[75.34,12.46],[75.27,12.54],[75.33,12.59],[75.05,12.66],[74.99,12.79],[74.87,12.75],[74.63,13.85],[74.5,14.02],[74.39,14.55],[74.31,14.52],[74.25,14.74],[74.09,14.8],[74.1,14.9],[74.27,14.97],[74.32,15.18],[74.26,15.26],[74.34,15.29],[74.26,15.65],[74.1,15.67],[74.23,15.79],[74.36,15.77],[74.47,16.04],[74.37,16.05],[74.5,16.1],[74.5,16.23],[74.33,16.27],[74.37,16.39],[74.28,16.54],[74.39,16.53],[74.48,16.66],[74.57,16.55],[74.69,16.6],[74.7,16.72],[74.92,16.77],[74.94,16.94],[75.09,16.95],[75.22,16.84],[75.29,16.95],[75.67,16.96],[75.66,17.26],[75.58,17.38],[75.64,17.48],[75.8,17.37],[75.89,17.42],[75.93,17.32],[76.12,17.37],[76.18,17.3],[76.24,17.37],[76.38,17.31],[76.33,17.59],[76.49,17.66],[76.52,17.76],[76.69,17.68],[76.79,17.83],[76.74,17.9],[76.92,17.92],[76.95,18.18],[77.11,18.15],[77.24,18.41],[77.34,18.44]]]]}},{"type":"Feature","properties":{"NAME_1":"Kerala"},"geometry":{"type":"MultiPolygon","coordinates":[[[[76.47,9.54],[76.47,9.54],[76.47,9.54],[76.47,9.54]]],[[[76.4,9.54],[76.4,9.54],[76.4,9.54],[76.4,9.54]]],[[[76.43,9.55],[76.43,9.55],[76.43,9.55],[76.43,9.55]]],[[[76.44,9.55],[76.44,9.55],[76.44,9.55],[76.44,9.55]]],[[[76.41,9.56],[76.41,9.56],[76.41,9.56],[76.41,9.56]]],[[[76.39,9.62],[76.39,9.62],[76.39,9.62],[76.39,9.62]]],[[[76.38,9.71],[76.38,9.71],[76.38,9.72],[76.38,9.72]]],[[[76.37,9.76],[76.37,9.76],[76.37,9.76],[76.37,9.76]]],[[[76.32,9.83],[76.32,9.83],[76.32,9.83],[76.32,9.82]]],[[[76.37,9.83],[76.37,9.83],[76.37,9.83],[76.37,9.83]]],[[[76.37,9.83],[76.37,9.83],[76.37,9.83],[76.37,9.83]]],[[[76.38,9.84],[76.38,9.84],[76.38,9.84],[76.38,9.84]]],[[[76.38,9.84],[76.38,9.84],[76.38,9.84],[76.38,9.84]]],[[[76.29,9.85],[76.29,9.85],[76.29,9.85],[76.29,9.85]]],[[[76.35,9.87],[76.35,9.87],[76.35,9.87],[76.35,9.87]]],[[[76.31,9.92],[76.31,9.92],[76.31,9.92],[76.31,9.92]]],[[[76.26,9.97],[76.26,9.97],[76.26,9.97],[76.26,9.97]]],[[[76.27,9.97],[76.27,9.97],[76.27,9.97],[76.27,9.97]]],[[[76.24,9.98],[76.24,9.98],[76.24,9.98],[76.24,9.98]]],[[[76.27,10.0],[76.27,10.0],[76.27,10.0],[76.27,10.0]]],[[[76.24,10.01],[76.24,10.01],[76.24,10.01],[76.24,10.01]]],[[[76.25,10.02],[76.25,10.01],[76.25,10.01],[76.25,10.01]]],[[[76.26,10.03],[76.26,10.03],[76.26,10.03],[76.26,10.03]]],[[[76.27,10.03],[76.27,10.03],[76.27,10.03],[76.27,10.03]]],[[[76.24,10.1],[76.24,10.1],[76.24,10.1],[76.24,10.1]]],[[[76.05,10.54],[76.05,10.53],[76.05,10.53],[76.05,10.53]]],[[[76.05,10.54],[76.05,10.54],[76.05,10.54],[76.05,10.54]]],[[[75.84,11.13],[75.84,11.13],[75.84,11.13],[75.84,11.13]]],[[[75.81,11.16],[75.81,11.16],[75.81,11.16],[75.81,11.16]]],[[[75.37,11.94],[75.37,11.94],[75.37,11.94],[75.37,11.94]]],[[[75.37,11.94],[75.37,11.94],[75.37,11.94],[75.37,11.94]]],[[[75.3,11.96],[75.3,11.96],[75.3,11.96],[75.3,11.96]]],[[[75.3,11.97],[75.3,11.97],[75.3,11.97],[75.3,11.97]]],[[[75.29,11.99],[75.29,11.99],[75.29,11.99],[75.29,11.99]]],[[[75.3,12.02],[75.3,12.02],[75.3,12.02],[75.3,12.02]]],[[[75.3,12.02],[75.3,12.02],[75.3,12.02],[75.3,12.02]]],[[[75.16,12.11],[75.16,12.11],[75.16,12.11],[75.16,12.11]]],[[[75.16,12.12],[75.16,12.12],[75.16,12.12],[75.16,12.11]]],[[[75.19,12.12],[75.19,12.12],[75.19,12.12],[75.19,12.12]]],[[[75.15,12.14],[75.15,12.14],[75.15,12.14],[75.15,12.14]]],[[[75.14,12.19],[75.14,12.19],[75.14,12.19],[75.14,12.19]]],[[[75.13,12.19],[75.13,12.19],[75.13,12.19],[75.13,12.19]]],[[[75.13,12.2],[75.13,12.2],[75.13,12.2],[75.13,12.2]]],[[[75.13,12.21],[75.13,12.2],[75.13,12.2],[75.13,12.2]]],[[[75.0,12.79],[75.05,12.66],[75.33,12.59],[75.27,12.55],[75.34,12.46],[75.41,12.5],[75.37,12.41],[75.42,12.29],[75.58,12.15],[75.8,12.07],[75.88,11.94],[76.11,11.97],[76.12,11.84],[76.41,11.75],[76.43,11.63],[76.23,11.56],[76.24,11.46],[76.54,11.35],[76.45,11.18],[76.73,11.21],[76.69,11.14],[76.79,11.04],[76.65,10.92],[76.9,10.77],[76.87,10.63],[76.8,10.63],[76.82,10.3],[76.97,10.21],[77.22,10.34],[77.28,10.21],[77.19,10.09],[77.26,9.96],[77.15,9.61],[77.34,9.6],[77.4,9.5],[77.13,9.01],[77.24,8.86],[77.16,8.74],[77.27,8.54],[77.19,8.49],[77.16,8.31],[76.98,8.38],[76.55,8.9],[76.31,9.52],[76.25,9.97],[76.35,9.71],[76.32,9.87],[76.37,9.82],[76.36,9.53],[76.5,9.53],[76.42,9.56],[76.38,9.86],[76.21,10.14],[76.22,9.98],[76.07,10.54],[75.91,10.79],[75.86,11.14],[75.62,11.48],[75.5,11.8],[75.45,11.77],[75.3,11.94],[75.37,11.96],[75.27,12.01],[75.4,12.14],[75.22,12.1],[75.2,12.01],[74.87,12.75],[75.0,12.79]]]]}},{"type":"Feature","properties":{"NAME_1":"Lakshadweep"},"geometry":{"type":"MultiPolygon","coordinates":[[[[73.01,8.28],[73.01,8.28],[73.01,8.28],[73.01,8.28]]],[[[73.08,8.33],[73.08,8.33],[73.08,8.33],[73.08,8.33]]],[[[72.29,10.05],[72.29,10.05],[72.29,10.05],[72.29,10.05]]],[[[73.63,10.07],[73.63,10.07],[73.63,10.07],[73.63,10.07]]],[[[73.63,10.08],[73.63,10.07],[73.63,10.07],[73.63,10.07]]],[[[73.65,10.1],[73.65,10.1],[73.65,10.1],[73.65,10.1]]],[[[72.33,10.14],[72.33,10.14],[72.33,10.14],[72.33,10.14]]],[[[73.66,10.16],[73.66,10.16],[73.66,10.16],[73.66,10.16]]],[[[72.64,10.58],[72.64,10.58],[72.65,10.58],[72.65,10.58]]],[[[72.17,10.81],[72.17,10.81],[72.17,10.81],[72.17,10.81]]],[[[72.17,10.82],[72.17,10.82],[72.17,10.82],[72.17,10.82]]],[[[73.68,10.82],[73.68,10.82],[73.68,10.82],[73.68,10.82]]],[[[72.17,10.82],[72.17,10.82],[72.17,10.82],[72.17,10.82]]],[[[72.29,10.95],[72.29,10.95],[72.29,10.95],[72.29,10.94]]],[[[72.33,10.95],[72.33,10.95],[72.33,10.95],[72.33,10.95]]],[[[72.33,10.96],[72.33,10.96],[72.33,10.96],[72.33,10.96]]],[[[72.73,11.14],[72.73,11.14],[72.73,11.14],[72.73,11.14]]],[[[72.11,11.21],[72.11,11.21],[72.11,11.21],[72.11,11.21]]],[[[72.1,11.22],[72.1,11.21],[72.1,11.21],[72.1,11.21]]],[[[72.79,11.26],[72.79,11.26],[72.79,11.26],[72.79,11.26]]],[[[73.0,11.49],[73.0,11.49],[73.0,11.49],[73.0,11.49]]],[[[73.0,11.5],[73.0,11.5],[73.0,11.5],[73.0,11.5]]],[[[72.19,11.6],[72.19,11.6],[72.19,11.6],[72.19,11.6]]],[[[72.71,11.71],[72.71,11.71],[72.71,11.71],[72.71,11.71]]]]}},{"type":"Feature","properties":{"NAME_1":"Madhya Pradesh"},"geometry":{"type":"Polygon","coordinates":[[[78.36,26.87],[78.57,26.76],[78.72,26.8],[78.99,26.68],[78.98,26.57],[79.13,26.34],[78.94,26.14],[79.0,26.08],[78.86,25.8],[78.75,25.75],[78.81,25.62],[78.43,25.56],[78.3,25.37],[78.44,25.13],[78.33,25.09],[78.33,25.0],[78.16,24.86],[78.27,24.67],[78.22,24.52],[78.38,24.27],[78.51,24.39],[78.79,24.18],[78.97,24.35],[78.88,24.64],[78.75,24.6],[78.78,24.81],[78.62,24.96],[78.57,25.26],[78.43,25.29],[78.65,25.44],[78.76,25.36],[78.81,25.43],[78.73,25.5],[78.83,25.43],[78.89,25.56],[78.98,25.38],[78.78,25.3],[78.84,25.23],[78.88,25.34],[78.96,25.35],[78.88,25.16],[79.0,25.2],[79.0,25.28],[79.02,25.14],[79.08,25.19],[79.12,25.11],[79.28,25.12],[79.27,25.25],[79.35,25.21],[79.26,25.28],[79.3,25.34],[79.35,25.27],[79.49,25.27],[79.4,25.11],[79.49,25.08],[79.57,25.18],[79.85,25.1],[79.85,25.24],[80.26,25.43],[80.42,25.17],[80.28,25.06],[80.31,25.0],[80.49,25.05],[80.48,25.1],[80.61,25.07],[80.59,25.16],[80.67,25.05],[80.78,25.06],[80.7,25.14],[80.83,25.11],[80.88,25.2],[80.8,24.94],[81.08,24.95],[81.13,24.89],[81.21,24.93],[81.27,25.17],[81.48,25.07],[81.57,25.2],[81.6,25.06],[81.9,25.01],[81.96,24.83],[82.2,24.82],[82.17,24.74],[82.24,24.78],[82.29,24.61],[82.41,24.6],[82.42,24.71],[82.53,24.65],[82.66,24.7],[82.8,24.6],[82.71,24.56],[82.76,24.29],[82.66,24.13],[82.81,23.96],[82.63,23.84],[82.5,23.79],[81.92,23.87],[81.81,23.81],[81.66,23.93],[81.6,23.89],[81.69,23.72],[81.57,23.59],[81.61,23.51],[81.92,23.53],[81.98,23.41],[82.19,23.33],[82.15,23.14],[81.94,23.08],[81.94,22.96],[81.77,22.87],[81.76,22.66],[81.62,22.54],[81.4,22.44],[81.32,22.52],[81.11,22.44],[81.0,22.07],[80.91,22.11],[80.81,21.75],[80.72,21.71],[80.66,21.34],[80.4,21.38],[80.26,21.62],[79.92,21.52],[79.73,21.6],[79.54,21.54],[79.49,21.67],[79.23,21.72],[79.22,21.65],[78.91,21.59],[78.93,21.49],[78.43,21.5],[78.38,21.62],[77.94,21.39],[77.58,21.36],[77.49,21.38],[77.42,21.53],[77.61,21.54],[77.54,21.7],[77.48,21.77],[77.29,21.76],[76.8,21.6],[76.78,21.47],[76.62,21.34],[76.62,21.19],[76.49,21.2],[76.38,21.08],[76.17,21.08],[76.1,21.37],[75.22,21.41],[74.9,21.63],[74.56,21.68],[74.45,22.03],[74.29,21.94],[74.15,21.95],[74.1,22.02],[74.18,22.09],[74.07,22.36],[74.19,22.32],[74.29,22.39],[74.19,22.48],[74.12,22.42],[74.04,22.54],[74.15,22.52],[74.27,22.64],[74.38,22.64],[74.48,22.86],[74.32,23.06],[74.75,23.21],[74.52,23.33],[74.61,23.46],[74.94,23.63],[74.91,23.87],[74.99,24.03],[74.89,24.26],[74.75,24.28],[74.86,24.47],[74.71,24.51],[74.82,24.67],[74.8,24.8],[74.89,24.66],[75.02,24.77],[74.85,24.79],[74.83,24.97],[75.04,24.86],[75.16,25.05],[75.35,25.04],[75.26,24.89],[75.42,24.86],[75.31,24.81],[75.21,24.91],[75.22,24.72],[75.84,24.73],[75.91,24.46],[75.79,24.48],[75.73,24.41],[75.83,24.25],[75.74,24.14],[75.83,24.08],[75.7,23.97],[75.51,24.05],[75.46,23.92],[75.58,23.8],[75.68,23.76],[75.7,23.9],[75.78,23.85],[75.98,23.93],[75.96,24.03],[76.13,24.1],[76.19,24.33],[76.22,24.22],[76.47,24.23],[76.53,24.16],[76.69,24.29],[76.7,24.17],[76.9,24.13],[76.94,24.21],[76.81,24.53],[76.91,24.54],[76.97,24.46],[77.06,24.57],[77.03,24.71],[76.8,24.82],[76.95,24.87],[76.85,25.01],[77.4,25.11],[77.36,25.41],[77.28,25.42],[77.21,25.31],[76.77,25.31],[76.56,25.44],[76.48,25.72],[76.59,25.87],[76.75,25.91],[77.12,26.24],[77.81,26.55],[77.89,26.66],[78.09,26.68],[78.11,26.8],[78.36,26.87]]]}},{"type":"Feature","properties":{"NAME_1":"Maharashtra"},"geometry":{"type":"MultiPolygon","coordinates":[[[[73.46,15.89],[73.46,15.89],[73.46,15.89],[73.46,15.89]]],[[[73.46,15.89],[73.46,15.89],[73.46,15.89],[73.46,15.89]]],[[[73.47,15.9],[73.47,15.9],[73.47,15.9],[73.47,15.9]]],[[[73.46,16.05],[73.46,16.05],[73.46,16.05],[73.46,16.05]]],[[[73.44,16.1],[73.44,16.1],[73.44,16.1],[73.44,16.1]]],[[[73.08,17.82],[73.08,17.82],[73.08,17.82],[73.08,17.82]]],[[[73.04,18.05],[73.04,18.05],[73.04,18.05],[73.04,18.05]]],[[[72.97,18.3],[72.97,18.3],[72.97,18.3],[72.97,18.3]]],[[[73.08,18.31],[73.08,18.31],[73.08,18.31],[73.08,18.31]]],[[[73.08,18.32],[73.08,18.32],[73.08,18.32],[73.08,18.32]]],[[[72.86,18.64],[72.86,18.64],[72.87,18.64],[72.87,18.63]]],[[[72.81,18.71],[72.81,18.71],[72.81,18.71],[72.81,18.71]]],[[[72.84,18.71],[72.84,18.71],[72.84,18.71],[72.84,18.71]]],[[[72.9,18.96],[72.9,18.96],[72.9,18.96],[72.9,18.96]]],[[[72.94,18.97],[72.94,18.97],[72.94,18.97],[72.94,18.97]]],[[[73.03,19.0],[73.03,19.0],[73.03,19.0],[73.03,19.0]]],[[[72.78,19.14],[72.78,19.14],[72.78,19.14],[72.78,19.13]]],[[[72.73,19.47],[72.73,19.47],[72.73,19.47],[72.73,19.47]]],[[[74.44,22.03],[74.59,21.66],[74.9,21.63],[75.3,21.39],[76.1,21.37],[76.14,21.13],[76.28,21.08],[76.62,21.19],[76.62,21.34],[76.78,21.47],[76.8,21.6],[77.29,21.76],[77.48,21.77],[77.54,21.7],[77.61,21.54],[77.42,21.53],[77.49,21.38],[77.58,21.36],[77.94,21.39],[78.38,21.62],[78.43,21.5],[78.93,21.49],[78.91,21.59],[79.22,21.65],[79.23,21.72],[79.49,21.67],[79.54,21.54],[79.73,21.6],[79.92,21.52],[80.26,21.62],[80.4,21.38],[80.67,21.31],[80.43,21.1],[80.58,20.68],[80.48,20.62],[80.62,20.6],[80.62,20.33],[80.38,20.24],[80.39,20.14],[80.55,20.07],[80.52,19.93],[80.41,19.93],[80.5,19.87],[80.39,19.79],[80.54,19.82],[80.66,19.61],[80.89,19.47],[80.79,19.43],[80.85,19.36],[80.75,19.29],[80.61,19.31],[80.57,19.4],[80.48,19.34],[80.27,18.99],[80.35,18.81],[80.11,18.68],[79.89,18.83],[79.93,19.02],[79.86,19.1],[79.94,19.17],[79.97,19.4],[79.79,19.59],[79.47,19.5],[79.24,19.61],[79.18,19.46],[78.95,19.55],[78.97,19.65],[78.86,19.66],[78.85,19.76],[78.49,19.79],[78.31,19.91],[78.37,19.78],[78.27,19.66],[78.31,19.46],[78.18,19.41],[78.17,19.24],[77.95,19.34],[77.86,19.3],[77.85,19.09],[77.76,19.03],[77.94,18.82],[77.73,18.68],[77.74,18.55],[77.6,18.55],[77.53,18.43],[77.57,18.31],[77.36,18.31],[77.41,18.39],[77.32,18.45],[77.11,18.15],[76.95,18.18],[76.92,17.92],[76.74,17.9],[76.79,17.83],[76.69,17.68],[76.52,17.76],[76.49,17.66],[76.33,17.59],[76.38,17.31],[76.24,17.37],[76.18,17.3],[76.12,17.37],[75.93,17.32],[75.89,17.42],[75.8,17.37],[75.64,17.48],[75.58,17.38],[75.66,17.26],[75.67,16.96],[75.29,16.95],[75.22,16.84],[75.09,16.95],[74.94,16.94],[74.92,16.77],[74.7,16.72],[74.69,16.6],[74.57,16.55],[74.48,16.66],[74.39,16.53],[74.27,16.54],[74.37,16.39],[74.33,16.27],[74.51,16.2],[74.49,16.09],[74.37,16.05],[74.47,16.04],[74.36,15.77],[74.23,15.79],[74.03,15.6],[73.87,15.8],[73.68,15.73],[73.45,16.06],[73.41,16.4],[73.32,16.51],[73.39,16.55],[73.32,16.6],[73.25,17.03],[73.32,17.04],[73.19,17.3],[73.24,17.31],[73.17,17.41],[73.13,17.83],[72.93,18.22],[72.96,18.28],[73.09,18.16],[73.09,18.33],[73.03,18.26],[72.91,18.35],[72.86,18.7],[72.87,18.8],[72.98,18.81],[72.91,18.9],[73.03,19.0],[72.96,19.06],[72.81,18.89],[72.83,19.18],[72.78,19.17],[72.84,19.27],[72.78,19.19],[72.79,19.53],[72.72,19.54],[72.65,19.85],[72.69,19.96],[72.75,19.93],[72.74,20.14],[72.87,20.23],[73.18,20.05],[73.31,20.21],[73.43,20.2],[73.39,20.39],[73.5,20.54],[73.4,20.65],[73.46,20.71],[73.67,20.56],[73.95,20.74],[73.91,20.98],[73.59,21.17],[73.82,21.17],[73.95,21.4],[74.34,21.54],[73.86,21.5],[73.79,21.63],[73.9,21.7],[73.81,21.82],[74.44,22.03]]]]}},{"type":"Feature","properties":{"NAME_1":"Manipur"},"geometry":{"type":"Polygon","coordinates":[[[94.58,25.65],[94.56,25.51],[94.68,25.46],[94.59,25.22],[94.75,25.14],[94.74,25.03],[94.33,24.34],[94.16,23.85],[93.82,23.93],[93.76,24.01],[93.51,23.95],[93.35,24.11],[93.26,24.02],[93.25,24.09],[93.1,24.05],[92.98,24.11],[93.11,24.81],[93.2,24.81],[93.4,25.26],[93.47,25.31],[93.61,25.2],[93.84,25.56],[94.01,25.6],[94.31,25.49],[94.58,25.65]]]}},{"type":"Feature","properties":{"NAME_1":"Meghalaya"},"geometry":{"type":"Polygon","coordinates":[[[91.85,26.1],[91.92,26.0],[92.3,26.08],[92.16,25.94],[92.23,25.91],[92.16,25.67],[92.39,25.75],[92.57,25.56],[92.66,25.59],[92.57,25.47],[92.78,25.33],[92.8,25.22],[92.52,25.14],[92.46,25.04],[92.07,25.19],[91.64,25.12],[91.27,25.2],[90.45,25.14],[89.83,25.3],[89.87,25.54],[90.02,25.61],[89.9,25.74],[90.12,25.96],[90.48,26.02],[90.51,25.9],[90.58,25.96],[90.62,25.9],[90.94,25.95],[91.03,25.89],[91.0,25.82],[91.2,25.86],[91.22,25.72],[91.33,25.84],[91.53,25.87],[91.58,26.03],[91.67,25.91],[91.73,26.06],[91.85,26.1]]]}},{"type":"Feature","properties":{"NAME_1":"Mizoram"},"geometry":{"type":"Polygon","coordinates":[[[92.8,24.42],[93.02,24.39],[92.98,24.11],[93.34,24.05],[93.44,23.68],[93.39,23.14],[93.3,23.01],[93.13,23.05],[93.17,22.92],[93.09,22.71],[93.21,22.26],[93.15,22.18],[93.05,22.2],[93.01,21.98],[92.96,22.03],[92.91,21.95],[92.72,22.15],[92.61,21.98],[92.53,22.68],[92.38,22.93],[92.41,23.25],[92.26,23.81],[92.33,23.91],[92.3,24.25],[92.42,24.25],[92.47,24.13],[92.77,24.52],[92.8,24.42]]]}},{"type":"Feature","properties":{"NAME_1":"Nagaland"},"geometry":{"type":"Polygon","coordinates":[[[95.21,26.94],[95.24,26.69],[95.07,26.46],[95.14,26.39],[95.12,26.11],[95.19,26.08],[95.02,25.91],[95.05,25.76],[94.9,25.57],[94.63,25.47],[94.56,25.51],[94.57,25.7],[94.31,25.49],[94.01,25.6],[93.84,25.56],[93.61,25.21],[93.51,25.24],[93.46,25.43],[93.33,25.55],[93.77,25.97],[93.8,25.81],[93.98,25.92],[94.0,26.17],[94.28,26.56],[94.32,26.46],[94.46,26.67],[94.76,26.77],[94.92,26.95],[95.02,26.93],[95.2,27.04],[95.21,26.94]]]}},{"type":"Feature","properties":{"NAME_1":"Orissa"},"geometry":{"type":"MultiPolygon","coordinates":[[[[84.77,19.11],[84.77,19.1],[84.77,19.1],[84.77,19.1]]],[[[84.76,19.11],[84.76,19.11],[84.76,19.11],[84.76,19.11]]],[[[84.78,19.11],[84.78,19.11],[84.78,19.11],[84.78,19.11]]],[[[86.24,19.91],[86.24,19.91],[86.24,19.91],[86.24,19.91]]],[[[86.37,19.95],[86.37,19.95],[86.37,19.95],[86.37,19.95]]],[[[86.39,19.96],[86.39,19.96],[86.39,19.96],[86.39,19.96]]],[[[86.39,19.97],[86.39,19.97],[86.39,19.97],[86.39,19.97]]],[[[86.37,19.97],[86.37,19.97],[86.37,19.97],[86.37,19.97]]],[[[86.32,19.99],[86.32,19.99],[86.32,19.99],[86.32,19.99]]],[[[86.32,20.0],[86.32,20.0],[86.32,20.0],[86.32,20.0]]],[[[86.34,19.99],[86.34,19.99],[86.34,19.99],[86.34,19.99]]],[[[86.31,20.02],[86.31,20.02],[86.31,20.02],[86.31,20.02]]],[[[86.25,20.03],[86.25,20.02],[86.25,20.02],[86.25,20.02]]],[[[86.41,20.02],[86.41,20.02],[86.41,20.02],[86.41,20.02]]],[[[86.27,20.02],[86.27,20.02],[86.27,20.02],[86.27,20.02]]],[[[86.32,20.03],[86.32,20.03],[86.32,20.03],[86.32,20.03]]],[[[86.32,20.03],[86.32,20.03],[86.32,20.03],[86.32,20.03]]],[[[86.27,20.03],[86.27,20.03],[86.27,20.03],[86.27,20.03]]],[[[86.31,20.04],[86.31,20.04],[86.31,20.04],[86.31,20.04]]],[[[86.3,20.04],[86.3,20.04],[86.3,20.04],[86.3,20.04]]],[[[86.43,20.04],[86.43,20.04],[86.43,20.04],[86.42,20.04]]],[[[86.29,20.05],[86.3,20.05],[86.3,20.05],[86.3,20.05]]],[[[86.27,20.06],[86.27,20.06],[86.27,20.06],[86.27,20.06]]],[[[86.26,20.06],[86.26,20.06],[86.26,20.06],[86.26,20.06]]],[[[86.44,20.06],[86.44,20.06],[86.44,20.06],[86.44,20.06]]],[[[86.49,20.15],[86.49,20.15],[86.49,20.15],[86.49,20.15]]],[[[86.5,20.18],[86.5,20.18],[86.5,20.18],[86.5,20.18]]],[[[86.55,20.21],[86.55,20.21],[86.55,20.21],[86.55,20.21]]],[[[86.79,20.37],[86.79,20.37],[86.79,20.37],[86.79,20.37]]],[[[86.79,20.38],[86.79,20.38],[86.79,20.38],[86.79,20.38]]],[[[86.79,20.38],[86.79,20.38],[86.79,20.39],[86.79,20.39]]],[[[86.8,20.42],[86.8,20.42],[86.8,20.42],[86.8,20.42]]],[[[86.79,20.39],[86.79,20.39],[86.79,20.39],[86.79,20.39]]],[[[86.8,20.46],[86.8,20.46],[86.8,20.46],[86.8,20.46]]],[[[86.81,20.49],[86.81,20.49],[86.81,20.49],[86.81,20.49]]],[[[86.87,20.67],[86.87,20.67],[86.87,20.67],[86.87,20.67]]],[[[86.8,20.69],[86.8,20.69],[86.8,20.69],[86.8,20.69]]],[[[87.0,20.71],[87.0,20.71],[87.0,20.71],[87.0,20.71]]],[[[87.01,20.71],[87.01,20.71],[87.01,20.71],[87.0,20.71]]],[[[87.06,20.74],[87.06,20.74],[87.06,20.74],[87.06,20.74]]],[[[87.07,20.74],[87.07,20.74],[87.07,20.74],[87.07,20.74]]],[[[87.09,20.76],[87.09,20.76],[87.09,20.76],[87.09,20.76]]],[[[86.87,20.77],[87.0,20.71],[86.86,20.66],[86.88,20.73],[86.77,20.65],[86.87,20.77]]],[[[86.88,20.78],[86.88,20.78],[86.88,20.78],[86.88,20.77]]],[[[86.86,20.78],[86.87,20.78],[86.87,20.78],[86.87,20.78]]],[[[86.98,20.78],[86.98,20.78],[86.99,20.78],[86.99,20.78]]],[[[86.95,20.78],[86.95,20.78],[86.95,20.78],[86.95,20.78]]],[[[86.88,20.79],[86.88,20.79],[86.89,20.79],[86.89,20.79]]],[[[87.02,20.8],[87.02,20.8],[87.02,20.8],[87.02,20.8]]],[[[87.12,21.52],[87.12,21.52],[87.12,21.52],[87.12,21.51]]],[[[86.08,22.53],[86.43,22.3],[86.5,22.34],[86.72,22.22],[86.72,22.14],[86.97,22.08],[87.03,21.87],[87.23,21.95],[87.27,21.8],[87.47,21.73],[87.48,21.61],[87.11,21.52],[86.82,21.19],[86.97,20.82],[86.83,20.77],[86.76,20.61],[87.05,20.71],[86.73,20.48],[86.77,20.33],[86.46,20.16],[86.47,20.1],[86.56,20.2],[86.39,19.98],[86.25,20.06],[86.36,19.95],[85.42,19.62],[84.78,19.11],[84.67,19.16],[84.59,19.01],[84.57,19.07],[84.42,19.01],[84.43,18.91],[84.31,18.78],[83.89,18.81],[83.62,19.15],[83.53,19.01],[83.46,19.07],[83.46,18.95],[83.31,18.99],[83.4,18.83],[83.21,18.72],[83.13,18.77],[83.01,18.64],[83.09,18.54],[83.02,18.44],[83.05,18.38],[82.9,18.36],[82.8,18.44],[82.63,18.23],[82.47,18.54],[82.36,18.41],[82.33,18.32],[82.39,18.31],[82.31,18.2],[82.36,18.13],[82.27,17.99],[82.02,18.06],[81.61,17.82],[81.38,17.81],[81.53,18.26],[81.74,18.35],[81.95,18.56],[81.89,18.65],[82.08,18.71],[82.24,18.91],[82.16,19.13],[82.18,19.42],[82.02,19.5],[82.06,19.78],[81.85,19.91],[81.87,20.04],[81.94,20.1],[82.02,20.01],[82.23,20.0],[82.34,19.83],[82.44,19.9],[82.59,19.86],[82.59,19.77],[82.7,19.83],[82.71,19.99],[82.39,20.06],[82.43,20.43],[82.32,20.55],[82.35,20.88],[82.46,20.82],[82.64,21.15],[82.96,21.18],[83.12,21.1],[83.27,21.38],[83.4,21.35],[83.33,21.5],[83.38,21.61],[83.48,21.63],[83.42,21.68],[83.47,21.78],[83.58,21.84],[83.53,22.03],[83.63,22.21],[84.0,22.37],[83.99,22.53],[84.29,22.34],[85.06,22.48],[85.11,22.29],[84.99,22.08],[85.1,22.1],[85.23,22.0],[85.36,22.15],[85.68,22.05],[85.8,22.11],[85.76,21.99],[85.91,21.97],[86.04,22.31],[85.96,22.48],[86.08,22.53]]]]}},{"type":"Feature","properties":{"NAME_1":"Puducherry"},"geometry":{"type":"MultiPolygon","coordinates":[[[[79.84,10.83],[79.84,10.83],[79.85,10.83],[79.85,10.83]]],[[[79.75,10.98],[79.85,10.98],[79.85,10.81],[79.7,10.92],[79.75,10.98]]],[[[79.69,12.0],[79.74,11.91],[79.84,11.94],[79.8,11.81],[79.66,11.87],[79.72,11.89],[79.64,11.98],[79.69,12.0]]],[[[75.37,12.15],[75.26,12.02],[75.3,11.95],[75.22,12.1],[75.37,12.15]]],[[[82.27,16.7],[82.27,16.7],[82.27,16.7],[82.27,16.7]]],[[[82.21,16.73],[82.21,16.73],[82.22,16.72],[82.23,16.72]]]]}},{"type":"Feature","properties":{"NAME_1":"Punjab"},"geometry":{"type":"Polygon","coordinates":[[[75.87,32.49],[75.93,32.42],[75.62,32.23],[75.66,32.16],[75.58,32.08],[75.89,31.95],[76.17,31.31],[76.3,31.32],[76.36,31.44],[76.43,31.28],[76.63,31.23],[76.61,31.0],[76.85,30.79],[76.69,30.75],[76.86,30.68],[76.93,30.39],[76.76,30.44],[76.72,30.33],[76.55,30.26],[76.64,30.21],[76.6,30.08],[76.45,30.1],[76.41,30.2],[76.32,30.11],[76.2,30.16],[76.25,30.1],[76.17,29.93],[76.24,29.87],[76.04,29.75],[75.77,29.83],[75.57,29.74],[75.44,29.81],[75.22,29.55],[75.16,29.66],[75.23,29.75],[75.18,29.84],[75.09,29.81],[75.08,29.92],[74.99,29.86],[74.8,29.99],[74.64,29.9],[73.89,29.97],[73.97,30.18],[73.87,30.38],[74.56,31.07],[74.69,31.1],[74.5,31.14],[74.64,31.46],[74.57,31.5],[74.52,31.72],[74.6,31.89],[74.91,32.07],[75.24,32.09],[75.36,32.23],[75.33,32.34],[75.47,32.34],[75.5,32.28],[75.87,32.58],[75.87,32.49]]]}},{"type":"Feature","properties":{"NAME_1":"Rajasthan"},"geometry":{"type":"Polygon","coordinates":[[[73.89,29.98],[74.52,29.94],[74.55,29.87],[74.47,29.79],[74.61,29.75],[74.61,29.53],[74.53,29.45],[74.6,29.33],[74.84,29.4],[75.08,29.23],[75.4,29.26],[75.36,29.14],[75.51,29.01],[75.47,28.93],[75.56,28.61],[75.77,28.41],[75.92,28.37],[76.09,28.16],[75.94,28.09],[76.04,28.07],[75.92,27.93],[75.96,27.86],[76.22,27.84],[76.15,28.0],[76.18,28.06],[76.34,28.03],[76.29,28.18],[76.47,28.15],[76.45,28.05],[76.54,28.04],[76.54,27.97],[76.81,28.22],[76.9,28.2],[76.96,28.14],[76.9,27.66],[77.08,27.74],[77.04,27.82],[77.3,27.8],[77.34,27.53],[77.43,27.4],[77.61,27.34],[77.67,27.2],[77.5,27.1],[77.76,27.02],[77.42,26.87],[77.45,26.75],[77.5,26.85],[77.75,26.94],[78.02,26.86],[78.11,26.95],[78.26,26.92],[78.18,26.79],[78.1,26.8],[78.09,26.68],[77.89,26.66],[77.81,26.55],[77.12,26.24],[76.75,25.91],[76.59,25.87],[76.48,25.72],[76.56,25.44],[76.77,25.31],[77.21,25.31],[77.28,25.42],[77.36,25.41],[77.4,25.11],[76.85,25.01],[76.95,24.87],[76.8,24.82],[77.03,24.71],[77.06,24.57],[76.97,24.46],[76.91,24.54],[76.81,24.53],[76.94,24.21],[76.9,24.13],[76.7,24.17],[76.69,24.29],[76.53,24.16],[76.47,24.23],[76.22,24.22],[76.19,24.33],[76.13,24.1],[75.96,24.03],[75.98,23.93],[75.78,23.85],[75.7,23.9],[75.68,23.76],[75.58,23.8],[75.46,23.92],[75.51,24.05],[75.7,23.97],[75.83,24.08],[75.74,24.14],[75.83,24.25],[75.73,24.41],[75.79,24.48],[75.91,24.46],[75.84,24.73],[75.22,24.72],[75.21,24.91],[75.31,24.81],[75.42,24.86],[75.26,24.89],[75.35,25.04],[75.16,25.05],[75.04,24.86],[74.85,24.97],[74.85,24.79],[75.02,24.75],[74.89,24.66],[74.8,24.8],[74.82,24.67],[74.71,24.51],[74.86,24.47],[74.75,24.28],[74.89,24.26],[74.99,24.03],[74.91,23.87],[74.94,23.63],[74.61,23.46],[74.52,23.33],[74.75,23.21],[74.32,23.06],[73.97,23.38],[73.89,23.34],[73.83,23.45],[73.63,23.45],[73.66,23.62],[73.51,23.62],[73.51,23.7],[73.36,23.79],[73.42,23.93],[73.37,24.13],[73.25,24.01],[73.08,24.18],[73.23,24.36],[73.08,24.39],[73.09,24.49],[72.92,24.33],[72.73,24.36],[72.7,24.46],[72.54,24.51],[72.46,24.41],[72.44,24.5],[72.25,24.58],[72.35,24.62],[72.17,24.61],[72.05,24.71],[71.94,24.63],[71.88,24.68],[71.86,24.6],[71.8,24.67],[71.3,24.61],[71.12,24.67],[70.89,25.14],[70.67,25.39],[70.67,25.7],[70.28,25.7],[70.1,25.94],[70.17,26.55],[69.82,26.59],[69.48,26.81],[69.59,27.18],[70.02,27.56],[70.16,27.83],[70.37,28.01],[70.56,28.02],[70.76,27.72],[70.88,27.7],[71.9,27.96],[71.93,28.13],[72.18,28.36],[72.38,28.76],[72.94,29.03],[73.27,29.56],[73.39,29.94],[73.97,30.2],[73.89,29.98]]]}},{"type":"Feature","properties":{"NAME_1":"Sikkim"},"geometry":{"type":"Polygon","coordinates":[[[88.65,28.1],[88.83,28.02],[88.88,27.89],[88.77,27.56],[88.91,27.28],[88.73,27.14],[88.56,27.19],[88.43,27.08],[88.09,27.14],[88.02,27.22],[88.05,27.5],[88.2,27.84],[88.12,27.95],[88.65,28.1]]]}},{"type":"Feature","properties":{"NAME_1":"Tamil Nadu"},"geometry":{"type":"MultiPolygon","coordinates":[[[[77.56,8.08],[77.56,8.08],[77.56,8.08],[77.56,8.08]]],[[[78.12,8.62],[78.12,8.62],[78.12,8.62],[78.12,8.62]]],[[[78.12,8.62],[78.12,8.62],[78.12,8.62],[78.12,8.62]]],[[[78.12,8.64],[78.12,8.64],[78.12,8.64],[78.12,8.64]]],[[[78.13,8.65],[78.13,8.65],[78.13,8.65],[78.13,8.64]]],[[[78.12,8.66],[78.12,8.66],[78.12,8.66],[78.12,8.65]]],[[[78.21,8.84],[78.21,8.84],[78.21,8.84],[78.21,8.84]]],[[[78.22,8.87],[78.22,8.87],[78.23,8.87],[78.23,8.87]]],[[[78.25,8.96],[78.25,8.96],[78.25,8.96],[78.25,8.96]]],[[[78.49,9.09],[78.49,9.09],[78.49,9.09],[78.49,9.09]]],[[[78.54,9.11],[78.54,9.11],[78.54,9.11],[78.54,9.11]]],[[[78.58,9.11],[78.58,9.11],[78.58,9.11],[78.58,9.11]]],[[[78.49,9.13],[78.49,9.13],[78.49,9.13],[78.49,9.13]]],[[[78.7,9.16],[78.7,9.15],[78.7,9.15],[78.7,9.15]]],[[[78.73,9.16],[78.73,9.16],[78.73,9.16],[78.73,9.16]]],[[[78.83,9.17],[78.83,9.17],[78.83,9.17],[78.83,9.17]]],[[[78.94,9.18],[78.94,9.18],[78.94,9.18],[78.94,9.18]]],[[[78.97,9.19],[78.97,9.19],[78.97,9.19],[78.97,9.19]]],[[[79.07,9.21],[79.07,9.21],[79.07,9.21],[79.07,9.21]]],[[[79.14,9.21],[79.14,9.21],[79.14,9.21],[79.14,9.21]]],[[[79.13,9.22],[79.13,9.22],[79.13,9.22],[79.13,9.22]]],[[[79.23,9.24],[79.23,9.24],[79.23,9.24],[79.23,9.24]]],[[[79.18,9.25],[79.18,9.25],[79.18,9.25],[79.18,9.25]]],[[[79.22,9.25],[79.22,9.25],[79.22,9.25],[79.22,9.25]]],[[[79.31,9.33],[79.44,9.16],[79.21,9.25],[79.31,9.33]]],[[[79.53,9.38],[79.53,9.38],[79.53,9.38],[79.53,9.38]]],[[[79.53,9.39],[79.53,9.39],[79.53,9.39],[79.53,9.39]]],[[[79.53,9.39],[79.53,9.39],[79.53,9.39],[79.53,9.39]]],[[[79.53,9.39],[79.53,9.39],[79.53,9.39],[79.53,9.39]]],[[[79.53,9.39],[79.53,9.39],[79.53,9.39],[79.53,9.39]]],[[[79.53,9.39],[79.53,9.39],[79.53,9.39],[79.53,9.39]]],[[[79.53,9.39],[79.53,9.39],[79.53,9.39],[79.53,9.39]]],[[[79.53,9.39],[79.53,9.39],[79.53,9.39],[79.53,9.39]]],[[[79.71,10.29],[79.71,10.29],[79.71,10.29],[79.71,10.29]]],[[[79.7,10.29],[79.7,10.29],[79.7,10.29],[79.7,10.29]]],[[[79.7,10.29],[79.7,10.29],[79.7,10.29],[79.7,10.29]]],[[[79.69,10.3],[79.69,10.3],[79.69,10.3],[79.69,10.3]]],[[[79.69,10.3],[79.69,10.3],[79.69,10.3],[79.69,10.3]]],[[[79.62,10.3],[79.62,10.3],[79.62,10.3],[79.62,10.3]]],[[[79.61,10.3],[79.61,10.3],[79.61,10.3],[79.61,10.3]]],[[[79.62,10.31],[79.62,10.31],[79.62,10.31],[79.62,10.31]]],[[[79.62,10.31],[79.62,10.31],[79.62,10.31],[79.62,10.31]]],[[[79.63,10.31],[79.63,10.31],[79.63,10.31],[79.63,10.31]]],[[[79.7,10.31],[79.7,10.31],[79.7,10.31],[79.7,10.31]]],[[[79.68,10.31],[79.68,10.31],[79.68,10.31],[79.68,10.31]]],[[[79.69,10.31],[79.69,10.31],[79.69,10.31],[79.69,10.31]]],[[[79.61,10.31],[79.61,10.31],[79.61,10.31],[79.61,10.31]]],[[[79.7,10.32],[79.7,10.32],[79.7,10.32],[79.7,10.32]]],[[[79.63,10.33],[79.63,10.33],[79.63,10.33],[79.63,10.33]]],[[[79.63,10.34],[79.63,10.34],[79.63,10.34],[79.63,10.34]]],[[[79.84,11.24],[79.84,11.24],[79.84,11.24],[79.84,11.24]]],[[[79.83,11.24],[79.83,11.24],[79.83,11.24],[79.83,11.24]]],[[[79.99,12.25],[79.99,12.25],[79.99,12.25],[79.99,12.25]]],[[[80.32,13.44],[80.32,13.44],[80.32,13.44],[80.32,13.44]]],[[[80.08,13.53],[80.31,13.37],[80.33,13.44],[80.25,12.78],[80.16,12.47],[80.02,12.34],[79.84,11.94],[79.74,11.91],[79.75,11.99],[79.64,11.98],[79.72,11.89],[79.66,11.87],[79.8,11.81],[79.76,11.56],[79.86,10.98],[79.73,10.99],[79.7,10.92],[79.85,10.81],[79.88,10.3],[79.74,10.28],[79.63,10.36],[79.55,10.31],[79.73,10.27],[79.55,10.35],[79.29,10.26],[79.23,10.14],[79.27,10.04],[78.9,9.49],[79.03,9.32],[79.19,9.28],[78.83,9.27],[78.37,9.09],[78.17,8.88],[78.16,8.77],[78.23,8.75],[78.1,8.65],[78.07,8.37],[77.55,8.08],[77.32,8.12],[77.09,8.3],[77.27,8.54],[77.16,8.74],[77.24,8.86],[77.13,9.01],[77.4,9.5],[77.34,9.6],[77.15,9.61],[77.26,9.96],[77.19,10.1],[77.28,10.21],[77.22,10.34],[76.97,10.21],[76.82,10.3],[76.8,10.63],[76.87,10.63],[76.9,10.77],[76.65,10.92],[76.79,11.04],[76.69,11.14],[76.73,11.21],[76.45,11.18],[76.54,11.35],[76.24,11.46],[76.23,11.56],[76.5,11.7],[76.56,11.61],[76.84,11.57],[76.9,11.78],[77.0,11.8],[77.11,11.71],[77.24,11.8],[77.42,11.75],[77.48,11.93],[77.66,11.94],[77.77,12.11],[77.46,12.24],[77.61,12.36],[77.59,12.66],[77.73,12.66],[77.83,12.86],[77.92,12.88],[77.98,12.8],[78.05,12.84],[78.22,12.75],[78.19,12.68],[78.45,12.61],[78.7,13.06],[78.88,13.09],[78.92,13.02],[78.98,13.08],[79.15,13.01],[79.22,13.14],[79.31,13.1],[79.42,13.19],[79.37,13.3],[79.43,13.32],[79.58,13.25],[79.67,13.28],[79.74,13.19],[79.72,13.27],[79.93,13.34],[80.04,13.48],[79.99,13.53],[80.08,13.53]]]]}},{"type":"Feature","properties":{"NAME_1":"Tripura"},"geometry":{"type":"Polygon","coordinates":[[[92.19,24.52],[92.27,24.39],[92.21,24.25],[92.33,24.19],[92.32,23.87],[92.22,23.66],[92.18,23.74],[92.07,23.64],[91.96,23.73],[91.98,23.48],[91.77,23.26],[91.84,23.09],[91.62,22.94],[91.42,23.28],[91.42,23.06],[91.36,23.1],[91.16,23.74],[91.22,23.74],[91.28,23.98],[91.38,23.98],[91.38,24.11],[91.6,24.08],[91.67,24.23],[91.76,24.14],[91.74,24.25],[91.9,24.14],[91.92,24.34],[92.12,24.38],[92.19,24.52]]]}},{"type":"Feature","properties":{"NAME_1":"Uttar Pradesh"},"geometry":{"type":"Polygon","coordinates":[[[77.58,30.41],[77.93,30.25],[77.7,29.87],[77.79,29.68],[77.95,29.71],[77.99,29.55],[78.33,29.8],[78.41,29.77],[78.61,29.56],[78.92,29.46],[78.71,29.32],[78.85,29.26],[78.9,29.15],[79.13,29.13],[79.16,29.02],[79.36,28.97],[79.41,28.86],[79.77,28.89],[79.78,28.81],[79.85,28.84],[79.97,28.72],[80.12,28.83],[80.52,28.55],[80.51,28.67],[80.57,28.69],[81.21,28.36],[81.32,28.13],[81.45,28.16],[81.89,27.86],[82.07,27.92],[82.45,27.68],[82.71,27.72],[82.74,27.5],[83.19,27.45],[83.32,27.33],[83.39,27.48],[83.62,27.47],[83.92,27.33],[84.05,26.89],[84.24,26.86],[84.23,26.74],[84.41,26.63],[84.08,26.64],[84.05,26.54],[83.9,26.52],[83.9,26.45],[84.17,26.37],[84.16,26.25],[84.01,26.24],[84.0,26.18],[84.17,25.99],[84.53,25.88],[84.63,25.73],[84.49,25.68],[84.33,25.74],[84.29,25.66],[84.09,25.72],[83.84,25.44],[83.34,25.18],[83.35,24.87],[83.54,24.62],[83.39,24.5],[83.45,24.36],[83.19,23.92],[82.94,23.88],[82.66,24.12],[82.76,24.29],[82.71,24.39],[82.71,24.56],[82.8,24.55],[82.76,24.65],[82.43,24.71],[82.41,24.6],[82.29,24.61],[82.24,24.78],[82.17,24.74],[82.2,24.82],[81.96,24.83],[81.9,25.01],[81.6,25.06],[81.57,25.2],[81.48,25.07],[81.27,25.17],[81.21,24.93],[81.13,24.89],[81.08,24.95],[80.8,24.94],[80.88,25.2],[80.83,25.11],[80.7,25.14],[80.78,25.06],[80.67,25.05],[80.59,25.16],[80.61,25.07],[80.28,25.02],[80.42,25.17],[80.26,25.43],[79.85,25.24],[79.86,25.1],[79.57,25.18],[79.49,25.08],[79.4,25.11],[79.49,25.27],[79.35,25.27],[79.29,25.34],[79.3,25.13],[79.13,25.11],[79.08,25.19],[79.02,25.14],[79.0,25.28],[79.0,25.2],[78.87,25.17],[78.95,25.35],[78.88,25.34],[78.84,25.23],[78.78,25.3],[78.98,25.38],[78.9,25.45],[78.93,25.56],[78.83,25.51],[78.83,25.43],[78.73,25.5],[78.81,25.43],[78.76,25.36],[78.65,25.44],[78.43,25.29],[78.57,25.26],[78.62,24.96],[78.78,24.81],[78.75,24.6],[78.88,24.64],[78.97,24.35],[78.79,24.18],[78.51,24.39],[78.41,24.28],[78.34,24.31],[78.36,24.39],[78.22,24.53],[78.27,24.67],[78.16,24.86],[78.33,25.0],[78.33,25.09],[78.44,25.13],[78.3,25.37],[78.43,25.56],[78.81,25.62],[78.75,25.75],[78.86,25.8],[79.0,26.08],[78.94,26.14],[79.13,26.32],[79.13,26.44],[78.98,26.57],[78.99,26.68],[78.72,26.8],[78.57,26.76],[78.35,26.87],[78.21,26.84],[78.22,26.95],[78.02,26.86],[77.75,26.94],[77.43,26.77],[77.42,26.87],[77.76,27.02],[77.51,27.07],[77.67,27.2],[77.61,27.34],[77.43,27.4],[77.31,27.61],[77.28,27.81],[77.54,27.95],[77.47,28.09],[77.54,28.25],[77.3,28.56],[77.32,28.72],[77.19,28.8],[77.09,29.6],[77.19,29.92],[77.41,30.11],[77.58,30.41]]]}},{"type":"Feature","properties":{"NAME_1":"Uttaranchal"},"geometry":{"type":"Polygon","coordinates":[[[79.19,31.35],[79.41,31.04],[79.59,30.94],[79.85,30.98],[80.22,30.76],[80.22,30.58],[80.58,30.49],[81.02,30.25],[80.37,29.75],[80.41,29.59],[80.24,29.44],[80.3,29.21],[80.15,29.1],[79.99,28.72],[79.85,28.84],[79.78,28.81],[79.77,28.89],[79.41,28.86],[79.36,28.97],[79.16,29.02],[79.13,29.13],[78.9,29.15],[78.85,29.26],[78.71,29.32],[78.92,29.46],[78.61,29.56],[78.47,29.75],[78.33,29.8],[77.99,29.55],[77.95,29.71],[77.79,29.68],[77.7,29.87],[77.93,30.25],[77.56,30.42],[77.81,30.53],[77.69,30.77],[77.89,31.15],[78.36,31.29],[78.47,31.2],[78.8,31.21],[78.94,31.11],[79.0,31.12],[78.92,31.33],[79.05,31.47],[79.19,31.35]]]}},{"type":"Feature","properties":{"NAME_1":"West Bengal"},"geometry":{"type":"MultiPolygon","coordinates":[[[[88.02,21.57],[88.02,21.57],[88.02,21.57],[88.02,21.57]]],[[[88.5,21.6],[88.5,21.6],[88.5,21.6],[88.5,21.6]]],[[[88.18,21.6],[88.18,21.6],[88.18,21.6],[88.18,21.6]]],[[[88.83,21.61],[88.83,21.61],[88.84,21.61],[88.84,21.61]]],[[[88.73,21.64],[88.73,21.64],[88.73,21.64],[88.73,21.64]]],[[[88.54,21.64],[88.54,21.64],[88.54,21.64],[88.54,21.64]]],[[[88.89,21.65],[88.89,21.65],[88.89,21.65],[88.89,21.65]]],[[[88.77,21.65],[88.77,21.65],[88.77,21.65],[88.77,21.65]]],[[[88.97,21.64],[88.97,21.64],[88.97,21.64],[88.97,21.64]]],[[[88.63,21.66],[88.63,21.66],[88.63,21.66],[88.63,21.66]]],[[[88.58,21.69],[88.58,21.69],[88.58,21.69],[88.58,21.69]]],[[[88.59,21.69],[88.59,21.69],[88.59,21.69],[88.59,21.69]]],[[[88.98,21.71],[88.99,21.71],[88.99,21.71],[88.99,21.71]]],[[[88.81,21.71],[88.81,21.71],[88.81,21.71],[88.81,21.71]]],[[[88.31,21.71],[88.31,21.71],[88.32,21.71],[88.32,21.71]]],[[[88.45,21.71],[88.45,21.71],[88.46,21.71],[88.46,21.71]]],[[[88.7,21.71],[88.7,21.71],[88.7,21.71],[88.7,21.71]]],[[[88.2,21.72],[88.2,21.72],[88.21,21.72],[88.21,21.72]]],[[[89.06,21.72],[89.06,21.72],[89.06,21.72],[89.06,21.72]]],[[[88.98,21.73],[88.98,21.73],[88.98,21.73],[88.98,21.73]]],[[[88.55,21.74],[88.55,21.74],[88.55,21.74],[88.55,21.74]]],[[[88.2,21.72],[88.19,21.72],[88.19,21.72],[88.19,21.73]]],[[[88.88,21.75],[88.88,21.75],[88.88,21.75],[88.88,21.74]]],[[[88.41,21.73],[88.41,21.73],[88.41,21.73],[88.41,21.73]]],[[[88.22,21.76],[88.31,21.68],[88.29,21.56],[88.22,21.62],[88.22,21.76]]],[[[88.93,21.76],[88.93,21.76],[88.93,21.76],[88.93,21.76]]],[[[88.37,21.76],[88.37,21.76],[88.37,21.76],[88.37,21.76]]],[[[89.01,21.76],[89.01,21.76],[89.01,21.76],[89.01,21.76]]],[[[88.83,21.77],[88.85,21.62],[88.76,21.7],[88.83,21.77]]],[[[88.38,21.76],[88.39,21.76],[88.39,21.76],[88.39,21.76]]],[[[88.2,21.77],[88.2,21.77],[88.2,21.77],[88.2,21.77]]],[[[88.28,21.77],[88.28,21.77],[88.28,21.77],[88.28,21.77]]],[[[88.58,21.78],[88.58,21.78],[88.58,21.78],[88.58,21.78]]],[[[88.3,21.72],[88.3,21.72],[88.3,21.72],[88.3,21.72]]],[[[88.51,21.78],[88.5,21.78],[88.5,21.78],[88.5,21.78]]],[[[89.0,21.79],[89.0,21.72],[88.95,21.76],[89.0,21.79]]],[[[88.61,21.79],[88.61,21.79],[88.61,21.79],[88.61,21.79]]],[[[88.27,21.79],[88.27,21.79],[88.28,21.79],[88.28,21.79]]],[[[88.18,21.79],[88.18,21.79],[88.18,21.79],[88.18,21.79]]],[[[88.46,21.79],[88.46,21.79],[88.46,21.79],[88.46,21.79]]],[[[88.72,21.81],[88.72,21.81],[88.72,21.81],[88.72,21.81]]],[[[88.17,21.81],[88.17,21.81],[88.17,21.81],[88.17,21.81]]],[[[88.54,21.81],[88.55,21.81],[88.55,21.81],[88.55,21.81]]],[[[88.42,21.81],[88.42,21.81],[88.42,21.81],[88.42,21.81]]],[[[89.0,21.81],[89.0,21.81],[89.0,21.81],[89.0,21.81]]],[[[88.75,21.8],[88.75,21.79],[88.75,21.79],[88.75,21.79]]],[[[88.83,21.8],[88.83,21.8],[88.83,21.8],[88.83,21.8]]],[[[88.79,21.75],[88.79,21.74],[88.79,21.74],[88.79,21.74]]],[[[88.92,21.83],[88.92,21.83],[88.92,21.83],[88.92,21.82]]],[[[88.18,21.83],[88.18,21.83],[88.18,21.82],[88.18,21.82]]],[[[88.56,21.83],[88.56,21.83],[88.56,21.83],[88.56,21.83]]],[[[88.48,21.83],[88.49,21.83],[88.49,21.83],[88.49,21.83]]],[[[88.94,21.85],[88.94,21.85],[88.94,21.85],[88.94,21.85]]],[[[88.59,21.85],[88.59,21.85],[88.59,21.85],[88.59,21.85]]],[[[88.52,21.85],[88.52,21.85],[88.52,21.85],[88.52,21.85]]],[[[88.54,21.85],[88.54,21.85],[88.54,21.85],[88.54,21.85]]],[[[88.33,21.86],[88.38,21.79],[88.32,21.71],[88.26,21.8],[88.33,21.86]]],[[[88.86,21.87],[88.91,21.73],[88.83,21.78],[88.86,21.87]]],[[[88.58,21.87],[88.58,21.87],[88.58,21.87],[88.58,21.87]]],[[[88.14,21.88],[88.11,21.63],[88.04,21.68],[88.14,21.88]]],[[[88.79,21.88],[88.79,21.88],[88.79,21.88],[88.79,21.88]]],[[[88.98,21.89],[89.03,21.83],[88.97,21.78],[88.98,21.89]]],[[[88.62,21.9],[88.62,21.9],[88.62,21.9],[88.62,21.9]]],[[[88.14,21.9],[88.14,21.89],[88.14,21.89],[88.14,21.9]]],[[[88.82,21.9],[88.82,21.9],[88.82,21.9],[88.82,21.9]]],[[[88.56,21.9],[88.56,21.9],[88.56,21.9],[88.56,21.9]]],[[[88.43,21.9],[88.43,21.9],[88.43,21.9],[88.43,21.9]]],[[[88.45,21.9],[88.46,21.79],[88.39,21.83],[88.45,21.9]]],[[[88.72,21.91],[88.72,21.91],[88.72,21.91],[88.72,21.91]]],[[[88.11,21.89],[88.11,21.89],[88.11,21.89],[88.11,21.89]]],[[[88.5,21.91],[88.5,21.91],[88.51,21.91],[88.51,21.91]]],[[[88.45,21.91],[88.45,21.91],[88.45,21.91],[88.45,21.91]]],[[[88.64,21.92],[88.64,21.92],[88.64,21.92],[88.64,21.92]]],[[[88.13,21.93],[88.14,21.93],[88.14,21.93],[88.14,21.93]]],[[[88.84,21.92],[88.98,21.87],[88.89,21.81],[88.84,21.92]]],[[[88.72,21.93],[88.72,21.93],[88.72,21.93],[88.72,21.93]]],[[[88.16,21.94],[88.16,21.94],[88.16,21.94],[88.16,21.94]]],[[[88.75,21.98],[88.75,21.98],[88.75,21.98],[88.75,21.98]]],[[[88.76,22.0],[88.76,22.0],[88.76,22.0],[88.76,22.0]]],[[[88.66,22.02],[88.66,22.02],[88.66,22.02],[88.66,22.02]]],[[[88.14,22.03],[88.14,22.03],[88.14,22.03],[88.14,22.02]]],[[[88.81,22.02],[88.9,22.01],[88.91,21.93],[88.75,21.96],[88.81,22.02]]],[[[88.73,22.05],[88.73,22.04],[88.73,22.04],[88.73,22.04]]],[[[88.76,22.05],[88.76,22.05],[88.76,22.05],[88.77,22.05]]],[[[88.9,22.05],[88.9,22.04],[88.9,22.04],[88.9,22.04]]],[[[88.03,22.06],[88.03,22.06],[88.03,22.06],[88.03,22.06]]],[[[89.02,22.05],[89.06,21.93],[88.97,21.99],[89.02,22.05]]],[[[88.64,22.05],[88.64,22.05],[88.64,22.05],[88.64,22.05]]],[[[88.81,22.06],[88.81,22.06],[88.81,22.06],[88.81,22.06]]],[[[88.87,22.08],[88.87,22.08],[88.87,22.08],[88.87,22.08]]],[[[88.69,22.08],[88.69,22.08],[88.69,22.08],[88.69,22.08]]],[[[88.9,22.08],[88.9,22.08],[88.9,22.08],[88.9,22.08]]],[[[88.72,22.1],[88.72,22.1],[88.72,22.1],[88.72,22.1]]],[[[88.8,22.09],[88.8,22.08],[88.8,22.08],[88.8,22.08]]],[[[88.82,22.12],[88.82,22.12],[88.82,22.12],[88.82,22.12]]],[[[88.73,22.11],[88.73,22.11],[88.73,22.11],[88.73,22.11]]],[[[88.87,22.17],[88.92,22.09],[88.83,22.13],[88.87,22.17]]],[[[88.95,22.19],[88.92,22.02],[88.96,22.06],[89.01,21.9],[88.91,21.99],[88.89,22.17],[88.95,22.19]]],[[[89.0,22.2],[89.05,22.13],[88.98,22.04],[89.0,22.2]]],[[[88.7,22.21],[88.79,22.17],[88.68,22.08],[88.72,22.01],[88.63,22.11],[88.7,22.21]]],[[[88.84,22.19],[88.85,22.19],[88.85,22.19],[88.85,22.19]]],[[[87.99,22.22],[87.99,22.22],[87.99,22.22],[87.99,22.22]]],[[[88.93,22.23],[88.93,22.22],[88.93,22.22],[88.93,22.22]]],[[[88.81,22.28],[88.83,22.17],[88.75,22.2],[88.81,22.28]]],[[[88.85,22.36],[88.94,22.3],[88.91,22.22],[88.84,22.29],[88.92,22.17],[88.88,22.25],[88.88,22.2],[88.8,22.23],[88.85,22.36]]],[[[88.98,22.38],[89.06,22.13],[88.95,22.26],[88.98,22.38]]],[[[87.94,22.4],[87.94,22.4],[87.94,22.4],[87.94,22.4]]],[[[88.86,22.4],[88.86,22.4],[88.86,22.4],[88.86,22.4]]],[[[88.87,22.41],[88.87,22.41],[88.87,22.41],[88.87,22.41]]],[[[88.92,22.43],[88.92,22.43],[88.92,22.43],[88.92,22.42]]],[[[87.93,22.42],[87.93,22.42],[87.92,22.43],[87.92,22.43]]],[[[87.91,22.43],[87.91,22.43],[87.91,22.43],[87.91,22.43]]],[[[88.86,22.47],[88.86,22.47],[88.86,22.47],[88.86,22.46]]],[[[88.78,22.5],[88.78,22.5],[88.78,22.5],[88.78,22.5]]],[[[88.9,22.55],[88.9,22.37],[88.84,22.51],[88.9,22.55]]],[[[88.93,22.56],[88.93,22.56],[88.94,22.56],[88.94,22.56]]],[[[88.92,22.57],[89.0,22.43],[88.94,22.31],[88.92,22.57]]],[[[88.94,22.62],[88.94,22.62],[88.94,22.62],[88.93,22.62]]],[[[88.68,24.32],[88.67,24.31],[88.68,24.32],[88.68,24.32]]],[[[88.13,27.12],[88.43,27.08],[88.59,27.19],[88.8,27.14],[88.87,27.11],[88.87,26.95],[89.02,26.94],[89.13,26.81],[89.38,26.87],[89.64,26.78],[89.63,26.72],[89.86,26.7],[89.87,26.45],[89.72,26.3],[89.73,26.17],[89.64,26.23],[89.6,26.1],[89.65,26.06],[89.55,25.96],[89.17,26.13],[89.09,26.4],[88.96,26.46],[88.92,26.37],[89.07,26.26],[88.89,26.29],[88.85,26.23],[88.62,26.47],[88.44,26.55],[88.42,26.63],[88.38,26.59],[88.33,26.48],[88.48,26.46],[88.52,26.36],[88.18,26.15],[88.19,26.02],[88.09,25.91],[88.12,25.8],[88.27,25.81],[88.54,25.51],[88.81,25.52],[88.84,25.36],[89.01,25.29],[88.92,25.17],[88.45,25.2],[88.4,24.95],[88.33,24.87],[88.23,24.96],[88.14,24.94],[88.18,24.86],[88.01,24.67],[88.33,24.38],[88.73,24.28],[88.69,24.11],[88.77,23.98],[88.58,23.86],[88.56,23.64],[88.8,23.49],[88.72,23.25],[88.99,23.21],[88.85,23.0],[88.97,22.84],[88.96,22.69],[88.81,22.73],[88.96,22.61],[88.85,22.43],[88.68,22.59],[88.88,22.36],[88.73,22.2],[88.64,22.22],[88.67,22.34],[88.62,22.11],[88.57,22.19],[88.61,21.91],[88.55,21.97],[88.57,21.9],[88.49,21.88],[88.55,22.04],[88.47,21.9],[88.46,22.01],[88.41,21.89],[88.38,21.97],[88.39,21.8],[88.36,21.92],[88.35,21.86],[88.27,21.88],[88.27,21.73],[88.16,21.88],[88.2,22.17],[88.07,22.21],[88.11,22.3],[88.05,22.22],[87.98,22.25],[87.88,22.44],[87.94,22.26],[88.19,22.1],[88.06,22.01],[87.96,22.1],[88.05,22.01],[87.93,21.8],[87.48,21.61],[87.44,21.76],[87.26,21.81],[87.23,21.95],[87.03,21.87],[87.02,22.04],[86.72,22.14],[86.89,22.29],[86.76,22.43],[86.76,22.57],[86.65,22.58],[86.62,22.67],[86.42,22.78],[86.43,22.92],[86.54,22.99],[86.21,22.99],[86.04,23.14],[85.91,23.13],[85.83,23.26],[85.87,23.47],[86.05,23.49],[86.04,23.58],[86.3,23.42],[86.44,23.63],[86.79,23.69],[86.79,23.83],[87.24,23.83],[87.29,23.9],[87.24,24.04],[87.46,23.98],[87.49,24.12],[87.69,24.15],[87.64,24.24],[87.81,24.41],[87.77,24.58],[87.91,24.59],[87.9,24.72],[87.82,24.77],[87.97,24.9],[87.77,25.1],[87.86,25.28],[87.76,25.41],[87.92,25.54],[88.07,25.5],[88.05,25.69],[87.8,25.92],[87.84,26.04],[88.29,26.35],[88.18,26.49],[88.23,26.55],[88.11,26.54],[88.18,26.87],[87.99,27.12],[88.03,27.22],[88.13,27.12]]]]}}]}